HIERARCHY
ROOT Hips
{
    OFFSET 0.0 0.0 0.0
    CHANNELS 6 Xposition Yposition Zposition Zrotation Xrotation Yrotation
    JOINT Spine
    {
        OFFSET 0.0 10.0 0.0
        CHANNELS 3 Zrotation Xrotation Yrotation
        JOINT Spine1
        {
            OFFSET 0.0 10.0 0.0
            CHANNELS 3 Zrotation Xrotation Yrotation
            JOINT Neck
            {
                OFFSET 0.0 10.0 0.0
                CHANNELS 3 Zrotation Xrotation Yrotation
                JOINT Head
                {
                    OFFSET 0.0 10.0 0.0
                    CHANNELS 3 Zrotation Xrotation Yrotation
                    End Site
                    {
                        OFFSET 0.0 10.0 0.0
                    }
                }
            }
            JOINT LeftArm
            {
                OFFSET -5.0 8.0 0.0
                CHANNELS 3 Zrotation Xrotation Yrotation
                JOINT LeftForeArm
                {
                    OFFSET -10.0 0.0 0.0
                    CHANNELS 3 Zrotation Xrotation Yrotation
                    JOINT LeftHand
                    {
                        OFFSET -10.0 0.0 0.0
                        CHANNELS 3 Zrotation Xrotation Yrotation
                        End Site
                        {
                            OFFSET -5.0 0.0 0.0
                        }
                    }
                }
            }
            JOINT RightArm
            {
                OFFSET 5.0 8.0 0.0
                CHANNELS 3 Zrotation Xrotation Yrotation
                JOINT RightForeArm
                {
                    OFFSET 10.0 0.0 0.0
                    CHANNELS 3 Zrotation Xrotation Yrotation
                    JOINT RightHand
                    {
                        OFFSET 10.0 0.0 0.0
                        CHANNELS 3 Zrotation Xrotation Yrotation
                        End Site
                        {
                            OFFSET 5.0 0.0 0.0
                        }
                    }
                }
            }
        }
    }
    JOINT LeftUpLeg
    {
        OFFSET -5.0 -5.0 0.0
        CHANNELS 3 Zrotation Xrotation Yrotation
        JOINT LeftLeg
        {
            OFFSET 0.0 -15.0 0.0
            CHANNELS 3 Zrotation Xrotation Yrotation
            JOINT LeftFoot
            {
                OFFSET 0.0 -15.0 0.0
                CHANNELS 3 Zrotation Xrotation Yrotation
                End Site
                {
                    OFFSET 0.0 -5.0 0.0
                }
            }
        }
    }
    JOINT RightUpLeg
    {
        OFFSET 5.0 -5.0 0.0
        CHANNELS 3 Zrotation Xrotation Yrotation
        JOINT RightLeg
        {
            OFFSET 0.0 -15.0 0.0
            CHANNELS 3 Zrotation Xrotation Yrotation
            JOINT RightFoot
            {
                OFFSET 0.0 -15.0 0.0
                CHANNELS 3 Zrotation Xrotation Yrotation
                End Site
                {
                    OFFSET 0.0 -5.0 0.0
                }
            }
        }
    }
}
MOTION
Frames: 120
Frame Time: 0.033333
0.000000 100.000000 0.000000 0.000000 0.000000 0.000000 0.000000 0.000000 0.000000 0.000000 0.000000 0.000000 0.000000 0.000000 0.000000 0.000000 0.000000 0.000000 0.000000 0.000000 0.000000 0.000000 0.000000 0.000000 0.000000 0.000000 0.000000 0.000000 0.000000 0.000000 0.000000 0.000000 0.000000 0.000000 0.000000 0.000000 0.000000 0.000000 0.000000 0.000000 0.000000 0.000000 0.000000 0.000000 0.000000 0.000000 0.000000 0.000000 0.000000 0.000000 0.000000 0.000000 0.000000 0.000000
0.338466 101.968212 0.822642 0.000000 0.000000 0.000000 0.000000 0.000000 0.000000 0.000000 0.000000 0.000000 0.000000 0.000000 0.000000 0.000000 0.000000 0.000000 12.338400 0.000000 0.000000 6.169200 0.000000 0.000000 0.000000 0.000000 0.000000 -12.338400 0.000000 0.000000 -6.169200 0.000000 0.000000 0.000000 0.000000 0.000000 9.841058 0.000000 0.000000 2.952317 0.000000 0.000000 0.000000 0.000000 0.000000 -9.841058 0.000000 0.000000 -2.952317 0.000000 0.000000 0.000000 0.000000 0.000000
0.665823 103.810397 1.639558 0.000000 0.000000 0.000000 0.000000 0.000000 0.000000 0.000000 0.000000 0.000000 0.000000 0.000000 0.000000 0.000000 0.000000 0.000000 23.349272 0.000000 0.000000 11.674636 0.000000 0.000000 0.000000 0.000000 0.000000 -23.349272 0.000000 0.000000 -11.674636 0.000000 0.000000 0.000000 0.000000 0.000000 19.051986 0.000000 0.000000 5.715596 0.000000 0.000000 0.000000 0.000000 0.000000 -19.051986 0.000000 0.000000 -5.715596 0.000000 0.000000 0.000000 0.000000 0.000000
0.971587 105.413937 2.445085 0.000000 0.000000 0.000000 0.000000 0.000000 0.000000 0.000000 0.000000 0.000000 0.000000 0.000000 0.000000 0.000000 0.000000 0.000000 31.899405 0.000000 0.000000 15.949703 0.000000 0.000000 0.000000 0.000000 0.000000 -31.899405 0.000000 0.000000 -15.949703 0.000000 0.000000 0.000000 0.000000 0.000000 27.069685 0.000000 0.000000 8.120906 0.000000 0.000000 0.000000 0.000000 0.000000 -27.069685 0.000000 0.000000 -8.120906 0.000000 0.000000 0.000000 0.000000 0.000000
1.246486 106.691326 3.233683 0.000000 0.000000 0.000000 0.000000 0.000000 0.000000 0.000000 0.000000 0.000000 0.000000 0.000000 0.000000 0.000000 0.000000 0.000000 37.212173 0.000000 0.000000 18.606087 0.000000 0.000000 0.000000 0.000000 0.000000 -37.212173 0.000000 0.000000 -18.606087 0.000000 0.000000 0.000000 0.000000 0.000000 33.456629 0.000000 0.000000 10.036989 0.000000 0.000000 0.000000 0.000000 0.000000 -33.456629 0.000000 0.000000 -10.036989 0.000000 0.000000 0.000000 0.000000 0.000000
1.482963 107.588706 4.000000 0.000000 0.000000 0.000000 0.000000 0.000000 0.000000 0.000000 0.000000 0.000000 0.000000 0.000000 0.000000 0.000000 0.000000 0.000000 38.971143 0.000000 0.000000 19.485572 0.000000 0.000000 0.000000 0.000000 0.000000 -38.971143 0.000000 0.000000 -19.485572 0.000000 0.000000 0.000000 0.000000 0.000000 37.943530 0.000000 0.000000 11.383059 0.000000 0.000000 0.000000 0.000000 0.000000 -37.943530 0.000000 0.000000 -11.383059 0.000000 0.000000 0.000000 0.000000 0.000000
1.675571 108.090170 4.738926 0.000000 0.000000 0.000000 0.000000 0.000000 0.000000 0.000000 0.000000 0.000000 0.000000 0.000000 0.000000 0.000000 0.000000 0.000000 37.348474 0.000000 0.000000 18.674237 0.000000 0.000000 0.000000 0.000000 0.000000 -37.348474 0.000000 0.000000 -18.674237 0.000000 0.000000 0.000000 0.000000 0.000000 40.450850 0.000000 0.000000 12.135255 0.000000 0.000000 0.000000 0.000000 0.000000 -40.450850 0.000000 0.000000 -12.135255 0.000000 0.000000 0.000000 0.000000 0.000000
1.821224 108.217330 5.445653 0.000000 0.000000 0.000000 0.000000 0.000000 0.000000 0.000000 0.000000 0.000000 0.000000 0.000000 0.000000 0.000000 0.000000 0.000000 32.954332 0.000000 0.000000 16.477166 0.000000 0.000000 0.000000 0.000000 0.000000 -32.954332 0.000000 0.000000 -16.477166 0.000000 0.000000 0.000000 0.000000 0.000000 41.086651 0.000000 0.000000 12.325995 0.000000 0.000000 0.000000 0.000000 0.000000 -41.086651 0.000000 0.000000 -12.325995 0.000000 0.000000 0.000000 0.000000 0.000000
1.919302 108.024276 6.115724 0.000000 0.000000 0.000000 0.000000 0.000000 0.000000 0.000000 0.000000 0.000000 0.000000 0.000000 0.000000 0.000000 0.000000 0.000000 26.716981 0.000000 0.000000 13.358491 0.000000 0.000000 0.000000 0.000000 0.000000 -26.716981 0.000000 0.000000 -13.358491 0.000000 0.000000 0.000000 0.000000 0.000000 40.121378 0.000000 0.000000 12.036413 0.000000 0.000000 0.000000 0.000000 0.000000 -40.121378 0.000000 0.000000 -12.036413 0.000000 0.000000 0.000000 0.000000 0.000000
1.971587 107.588638 6.745085 0.000000 0.000000 0.000000 0.000000 0.000000 0.000000 0.000000 0.000000 0.000000 0.000000 0.000000 0.000000 0.000000 0.000000 0.000000 19.714917 0.000000 0.000000 9.857458 0.000000 0.000000 0.000000 0.000000 0.000000 -19.714917 0.000000 0.000000 -9.857458 0.000000 0.000000 0.000000 0.000000 0.000000 37.943189 0.000000 0.000000 11.382957 0.000000 0.000000 0.000000 0.000000 0.000000 -37.943189 0.000000 0.000000 -11.382957 0.000000 0.000000 0.000000 0.000000 0.000000
1.982051 107.000000 7.330127 0.000000 0.000000 0.000000 0.000000 0.000000 0.000000 0.000000 0.000000 0.000000 0.000000 0.000000 0.000000 0.000000 0.000000 0.000000 12.990381 0.000000 0.000000 6.495191 0.000000 0.000000 0.000000 0.000000 0.000000 -12.990381 0.000000 0.000000 -6.495191 0.000000 0.000000 0.000000 0.000000 0.000000 35.000000 0.000000 0.000000 10.500000 0.000000 0.000000 0.000000 0.000000 0.000000 -35.000000 0.000000 0.000000 -10.500000 0.000000 0.000000 0.000000 0.000000 0.000000
1.956500 106.347215 7.867727 0.000000 0.000000 0.000000 0.000000 0.000000 0.000000 0.000000 0.000000 0.000000 0.000000 0.000000 0.000000 0.000000 0.000000 0.000000 7.376516 0.000000 0.000000 3.688258 0.000000 0.000000 0.000000 0.000000 0.000000 -7.376516 0.000000 0.000000 -3.688258 0.000000 0.000000 0.000000 0.000000 0.000000 31.736074 0.000000 0.000000 9.520822 0.000000 0.000000 0.000000 0.000000 0.000000 -31.736074 0.000000 0.000000 -9.520822 0.000000 0.000000 0.000000 0.000000 0.000000
1.902113 105.706339 8.355283 0.000000 0.000000 0.000000 0.000000 0.000000 0.000000 0.000000 0.000000 0.000000 0.000000 0.000000 0.000000 0.000000 0.000000 0.000000 3.367710 0.000000 0.000000 1.683855 0.000000 0.000000 0.000000 0.000000 0.000000 -3.367710 0.000000 0.000000 -1.683855 0.000000 0.000000 0.000000 0.000000 0.000000 28.531695 0.000000 0.000000 8.559509 0.000000 0.000000 0.000000 0.000000 0.000000 -28.531695 0.000000 0.000000 -8.559509 0.000000 0.000000 0.000000 0.000000 0.000000
1.826886 105.130793 8.790738 0.000000 0.000000 0.000000 0.000000 0.000000 0.000000 0.000000 0.000000 0.000000 0.000000 0.000000 0.000000 0.000000 0.000000 0.000000 1.054927 0.000000 0.000000 0.527463 0.000000 0.000000 0.000000 0.000000 0.000000 -1.054927 0.000000 0.000000 -0.527463 0.000000 0.000000 0.000000 0.000000 0.000000 25.653966 0.000000 0.000000 7.696190 0.000000 0.000000 0.000000 0.000000 0.000000 -25.653966 0.000000 0.000000 -7.696190 0.000000 0.000000 0.000000 0.000000 0.000000
1.739044 104.645045 9.172609 0.000000 0.000000 0.000000 0.000000 0.000000 0.000000 0.000000 0.000000 0.000000 0.000000 0.000000 0.000000 0.000000 0.000000 0.000000 0.136301 0.000000 0.000000 0.068151 0.000000 0.000000 0.000000 0.000000 0.000000 -0.136301 0.000000 0.000000 -0.068151 0.000000 0.000000 0.000000 0.000000 0.000000 23.225225 0.000000 0.000000 6.967568 0.000000 0.000000 0.000000 0.000000 0.000000 -23.225225 0.000000 0.000000 -6.967568 0.000000 0.000000 0.000000 0.000000 0.000000
1.646447 104.242641 9.500000 0.000000 0.000000 0.000000 0.000000 0.000000 0.000000 0.000000 0.000000 0.000000 0.000000 0.000000 0.000000 0.000000 0.000000 0.000000 0.000000 0.000000 0.000000 0.000000 0.000000 0.000000 0.000000 0.000000 0.000000 -0.000000 0.000000 0.000000 -0.000000 0.000000 0.000000 0.000000 0.000000 0.000000 21.213203 0.000000 0.000000 6.363961 0.000000 0.000000 0.000000 0.000000 0.000000 -21.213203 0.000000 0.000000 -6.363961 0.000000 0.000000 0.000000 0.000000 0.000000
1.556031 103.888809 9.772609 0.000000 0.000000 0.000000 0.000000 0.000000 0.000000 0.000000 0.000000 0.000000 0.000000 0.000000 0.000000 0.000000 0.000000 0.000000 -0.136301 0.000000 0.000000 -0.068151 0.000000 0.000000 0.000000 0.000000 0.000000 0.136301 0.000000 0.000000 0.068151 0.000000 0.000000 0.000000 0.000000 0.000000 19.444044 0.000000 0.000000 5.833213 0.000000 0.000000 0.000000 0.000000 0.000000 -19.444044 0.000000 0.000000 -5.833213 0.000000 0.000000 0.000000 0.000000 0.000000
1.473332 103.527252 9.990738 0.000000 0.000000 0.000000 0.000000 0.000000 0.000000 0.000000 0.000000 0.000000 0.000000 0.000000 0.000000 0.000000 0.000000 0.000000 -1.054927 0.000000 0.000000 -0.527463 0.000000 0.000000 0.000000 0.000000 0.000000 1.054927 0.000000 0.000000 0.527463 0.000000 0.000000 0.000000 0.000000 0.000000 17.636260 0.000000 0.000000 5.290878 0.000000 0.000000 0.000000 0.000000 0.000000 -17.636260 0.000000 0.000000 -5.290878 0.000000 0.000000 0.000000 0.000000 0.000000
1.402113 103.090170 10.155283 0.000000 0.000000 0.000000 0.000000 0.000000 0.000000 0.000000 0.000000 0.000000 0.000000 0.000000 0.000000 0.000000 0.000000 0.000000 -3.367710 0.000000 0.000000 -1.683855 0.000000 0.000000 0.000000 0.000000 0.000000 3.367710 0.000000 0.000000 1.683855 0.000000 0.000000 0.000000 0.000000 0.000000 15.450850 0.000000 0.000000 4.635255 0.000000 0.000000 0.000000 0.000000 0.000000 -15.450850 0.000000 0.000000 -4.635255 0.000000 0.000000 0.000000 0.000000 0.000000
1.344128 102.510117 10.267727 0.000000 0.000000 0.000000 0.000000 0.000000 0.000000 0.000000 0.000000 0.000000 0.000000 0.000000 0.000000 0.000000 0.000000 0.000000 -7.376516 0.000000 0.000000 -3.688258 0.000000 0.000000 0.000000 0.000000 0.000000 7.376516 0.000000 0.000000 3.688258 0.000000 0.000000 0.000000 0.000000 0.000000 12.550583 0.000000 0.000000 3.765175 0.000000 0.000000 0.000000 0.000000 0.000000 -12.550583 0.000000 0.000000 -3.765175 0.000000 0.000000 0.000000 0.000000 0.000000
1.299038 101.732051 10.330127 0.000000 0.000000 0.000000 0.000000 0.000000 0.000000 0.000000 0.000000 0.000000 0.000000 0.000000 0.000000 0.000000 0.000000 0.000000 -12.990381 0.000000 0.000000 -6.495191 0.000000 0.000000 0.000000 0.000000 0.000000 12.990381 0.000000 0.000000 6.495191 0.000000 0.000000 0.000000 0.000000 0.000000 8.660254 0.000000 0.000000 2.598076 0.000000 0.000000 0.000000 0.000000 0.000000 -8.660254 0.000000 0.000000 -2.598076 0.000000 0.000000 0.000000 0.000000 0.000000
1.264481 103.226852 10.345085 0.000000 0.000000 0.000000 0.000000 0.000000 0.000000 0.000000 0.000000 0.000000 0.000000 0.000000 0.000000 0.000000 0.000000 0.000000 -19.714917 0.000000 0.000000 -9.857458 0.000000 0.000000 0.000000 0.000000 0.000000 19.714917 0.000000 0.000000 9.857458 0.000000 0.000000 0.000000 0.000000 0.000000 3.619505 0.000000 0.000000 1.085851 0.000000 0.000000 0.000000 0.000000 0.000000 -3.619505 0.000000 0.000000 -1.085851 0.000000 0.000000 0.000000 0.000000 0.000000
1.236290 104.428431 10.315724 0.000000 0.000000 0.000000 0.000000 0.000000 0.000000 0.000000 0.000000 0.000000 0.000000 0.000000 0.000000 0.000000 0.000000 0.000000 -26.716981 0.000000 0.000000 -13.358491 0.000000 0.000000 0.000000 0.000000 0.000000 26.716981 0.000000 0.000000 13.358491 0.000000 0.000000 0.000000 0.000000 0.000000 -2.579204 0.000000 0.000000 -0.773761 0.000000 0.000000 0.000000 0.000000 0.000000 2.579204 0.000000 0.000000 0.773761 0.000000 0.000000 0.000000 0.000000 0.000000
1.208852 105.309265 10.245653 0.000000 0.000000 0.000000 0.000000 0.000000 0.000000 0.000000 0.000000 0.000000 0.000000 0.000000 0.000000 0.000000 0.000000 0.000000 -32.954332 0.000000 0.000000 -16.477166 0.000000 0.000000 0.000000 0.000000 0.000000 32.954332 0.000000 0.000000 16.477166 0.000000 0.000000 0.000000 0.000000 0.000000 -9.772914 0.000000 0.000000 -2.931874 0.000000 0.000000 0.000000 0.000000 0.000000 9.772914 0.000000 0.000000 2.931874 0.000000 0.000000 0.000000 0.000000 0.000000
1.175571 105.877853 10.138926 0.000000 0.000000 0.000000 0.000000 0.000000 0.000000 0.000000 0.000000 0.000000 0.000000 0.000000 0.000000 0.000000 0.000000 0.000000 -37.348474 0.000000 0.000000 -18.674237 0.000000 0.000000 0.000000 0.000000 0.000000 37.348474 0.000000 0.000000 18.674237 0.000000 0.000000 0.000000 0.000000 0.000000 -17.633558 0.000000 0.000000 -5.290067 0.000000 0.000000 0.000000 0.000000 0.000000 17.633558 0.000000 0.000000 5.290067 0.000000 0.000000 0.000000 0.000000 0.000000
1.129410 106.174492 10.000000 0.000000 0.000000 0.000000 0.000000 0.000000 0.000000 0.000000 0.000000 0.000000 0.000000 0.000000 0.000000 0.000000 0.000000 0.000000 -38.971143 0.000000 0.000000 -19.485572 0.000000 0.000000 0.000000 0.000000 0.000000 38.971143 0.000000 0.000000 19.485572 0.000000 0.000000 0.000000 0.000000 0.000000 -25.696081 0.000000 0.000000 -7.708824 0.000000 0.000000 0.000000 0.000000 0.000000 25.696081 0.000000 0.000000 7.708824 0.000000 0.000000 0.000000 0.000000 0.000000
1.063473 106.263079 9.833683 0.000000 0.000000 0.000000 0.000000 0.000000 0.000000 0.000000 0.000000 0.000000 0.000000 0.000000 0.000000 0.000000 0.000000 0.000000 -37.212173 0.000000 0.000000 -18.606087 0.000000 0.000000 0.000000 0.000000 0.000000 37.212173 0.000000 0.000000 18.606087 0.000000 0.000000 0.000000 0.000000 0.000000 -33.405964 0.000000 0.000000 -10.021789 0.000000 0.000000 0.000000 0.000000 0.000000 33.405964 0.000000 0.000000 10.021789 0.000000 0.000000 0.000000 0.000000 0.000000
0.971587 106.220071 9.645085 0.000000 0.000000 0.000000 0.000000 0.000000 0.000000 0.000000 0.000000 0.000000 0.000000 0.000000 0.000000 0.000000 0.000000 0.000000 -31.899405 0.000000 0.000000 -15.949703 0.000000 0.000000 0.000000 0.000000 0.000000 31.899405 0.000000 0.000000 15.949703 0.000000 0.000000 0.000000 0.000000 0.000000 -40.180166 0.000000 0.000000 -12.054050 0.000000 0.000000 0.000000 0.000000 0.000000 40.180166 0.000000 0.000000 12.054050 0.000000 0.000000 0.000000 0.000000 0.000000
0.848836 106.122162 9.439558 0.000000 0.000000 0.000000 0.000000 0.000000 0.000000 0.000000 0.000000 0.000000 0.000000 0.000000 0.000000 0.000000 0.000000 0.000000 -23.349272 0.000000 0.000000 -11.674636 0.000000 0.000000 0.000000 0.000000 0.000000 23.349272 0.000000 0.000000 11.674636 0.000000 0.000000 0.000000 0.000000 0.000000 -45.473709 0.000000 0.000000 -13.642113 0.000000 0.000000 0.000000 0.000000 0.000000 45.473709 0.000000 0.000000 13.642113 0.000000 0.000000 0.000000 0.000000 0.000000
0.692020 106.034346 9.222642 0.000000 0.000000 0.000000 0.000000 0.000000 0.000000 0.000000 0.000000 0.000000 0.000000 0.000000 0.000000 0.000000 0.000000 0.000000 -12.338400 0.000000 0.000000 -6.169200 0.000000 0.000000 0.000000 0.000000 0.000000 12.338400 0.000000 0.000000 6.169200 0.000000 0.000000 0.000000 0.000000 0.000000 -48.843338 0.000000 0.000000 -14.653001 0.000000 0.000000 0.000000 0.000000 0.000000 48.843338 0.000000 0.000000 14.653001 0.000000 0.000000 0.000000 0.000000 0.000000
0.500000 106.000000 9.000000 0.000000 0.000000 0.000000 0.000000 0.000000 0.000000 0.000000 0.000000 0.000000 0.000000 0.000000 0.000000 0.000000 0.000000 0.000000 -0.000000 0.000000 0.000000 -0.000000 0.000000 0.000000 0.000000 0.000000 0.000000 0.000000 0.000000 0.000000 0.000000 0.000000 0.000000 0.000000 0.000000 0.000000 -50.000000 0.000000 0.000000 -15.000000 0.000000 0.000000 0.000000 0.000000 0.000000 50.000000 0.000000 0.000000 15.000000 0.000000 0.000000 0.000000 0.000000 0.000000
0.273906 106.034346 8.777358 0.000000 0.000000 0.000000 0.000000 0.000000 0.000000 0.000000 0.000000 0.000000 0.000000 0.000000 0.000000 0.000000 0.000000 0.000000 12.338400 0.000000 0.000000 6.169200 0.000000 0.000000 0.000000 0.000000 0.000000 -12.338400 0.000000 0.000000 -6.169200 0.000000 0.000000 0.000000 0.000000 0.000000 -48.843338 0.000000 0.000000 -14.653001 0.000000 0.000000 0.000000 0.000000 0.000000 48.843338 0.000000 0.000000 14.653001 0.000000 0.000000 0.000000 0.000000 0.000000
0.017189 106.122162 8.560442 0.000000 0.000000 0.000000 0.000000 0.000000 0.000000 0.000000 0.000000 0.000000 0.000000 0.000000 0.000000 0.000000 0.000000 0.000000 23.349272 0.000000 0.000000 11.674636 0.000000 0.000000 0.000000 0.000000 0.000000 -23.349272 0.000000 0.000000 -11.674636 0.000000 0.000000 0.000000 0.000000 0.000000 -45.473709 0.000000 0.000000 -13.642113 0.000000 0.000000 0.000000 0.000000 0.000000 45.473709 0.000000 0.000000 13.642113 0.000000 0.000000 0.000000 0.000000 0.000000
-0.264481 106.220071 8.354915 0.000000 0.000000 0.000000 0.000000 0.000000 0.000000 0.000000 0.000000 0.000000 0.000000 0.000000 0.000000 0.000000 0.000000 0.000000 31.899405 0.000000 0.000000 15.949703 0.000000 0.000000 0.000000 0.000000 0.000000 -31.899405 0.000000 0.000000 -15.949703 0.000000 0.000000 0.000000 0.000000 0.000000 -40.180166 0.000000 0.000000 -12.054050 0.000000 0.000000 0.000000 0.000000 0.000000 40.180166 0.000000 0.000000 12.054050 0.000000 0.000000 0.000000 0.000000 0.000000
-0.563473 106.263079 8.166317 0.000000 0.000000 0.000000 0.000000 0.000000 0.000000 0.000000 0.000000 0.000000 0.000000 0.000000 0.000000 0.000000 0.000000 0.000000 37.212173 0.000000 0.000000 18.606087 0.000000 0.000000 0.000000 0.000000 0.000000 -37.212173 0.000000 0.000000 -18.606087 0.000000 0.000000 0.000000 0.000000 0.000000 -33.405964 0.000000 0.000000 -10.021789 0.000000 0.000000 0.000000 0.000000 0.000000 33.405964 0.000000 0.000000 10.021789 0.000000 0.000000 0.000000 0.000000 0.000000
-0.870590 106.174492 8.000000 0.000000 0.000000 0.000000 0.000000 0.000000 0.000000 0.000000 0.000000 0.000000 0.000000 0.000000 0.000000 0.000000 0.000000 0.000000 38.971143 0.000000 0.000000 19.485572 0.000000 0.000000 0.000000 0.000000 0.000000 -38.971143 0.000000 0.000000 -19.485572 0.000000 0.000000 0.000000 0.000000 0.000000 -25.696081 0.000000 0.000000 -7.708824 0.000000 0.000000 0.000000 0.000000 0.000000 25.696081 0.000000 0.000000 7.708824 0.000000 0.000000 0.000000 0.000000 0.000000
-1.175571 105.877853 7.861074 0.000000 0.000000 0.000000 0.000000 0.000000 0.000000 0.000000 0.000000 0.000000 0.000000 0.000000 0.000000 0.000000 0.000000 0.000000 37.348474 0.000000 0.000000 18.674237 0.000000 0.000000 0.000000 0.000000 0.000000 -37.348474 0.000000 0.000000 -18.674237 0.000000 0.000000 0.000000 0.000000 0.000000 -17.633558 0.000000 0.000000 -5.290067 0.000000 0.000000 0.000000 0.000000 0.000000 17.633558 0.000000 0.000000 5.290067 0.000000 0.000000 0.000000 0.000000 0.000000
-1.467671 105.309265 7.754347 0.000000 0.000000 0.000000 0.000000 0.000000 0.000000 0.000000 0.000000 0.000000 0.000000 0.000000 0.000000 0.000000 0.000000 0.000000 32.954332 0.000000 0.000000 16.477166 0.000000 0.000000 0.000000 0.000000 0.000000 -32.954332 0.000000 0.000000 -16.477166 0.000000 0.000000 0.000000 0.000000 0.000000 -9.772914 0.000000 0.000000 -2.931874 0.000000 0.000000 0.000000 0.000000 0.000000 9.772914 0.000000 0.000000 2.931874 0.000000 0.000000 0.000000 0.000000 0.000000
-1.736290 104.428431 7.684276 0.000000 0.000000 0.000000 0.000000 0.000000 0.000000 0.000000 0.000000 0.000000 0.000000 0.000000 0.000000 0.000000 0.000000 0.000000 26.716981 0.000000 0.000000 13.358491 0.000000 0.000000 0.000000 0.000000 0.000000 -26.716981 0.000000 0.000000 -13.358491 0.000000 0.000000 0.000000 0.000000 0.000000 -2.579204 0.000000 0.000000 -0.773761 0.000000 0.000000 0.000000 0.000000 0.000000 2.579204 0.000000 0.000000 0.773761 0.000000 0.000000 0.000000 0.000000 0.000000
-1.971587 103.226852 7.654915 0.000000 0.000000 0.000000 0.000000 0.000000 0.000000 0.000000 0.000000 0.000000 0.000000 0.000000 0.000000 0.000000 0.000000 0.000000 19.714917 0.000000 0.000000 9.857458 0.000000 0.000000 0.000000 0.000000 0.000000 -19.714917 0.000000 0.000000 -9.857458 0.000000 0.000000 0.000000 0.000000 0.000000 3.619505 0.000000 0.000000 1.085851 0.000000 0.000000 0.000000 0.000000 0.000000 -3.619505 0.000000 0.000000 -1.085851 0.000000 0.000000 0.000000 0.000000 0.000000
-2.165064 101.732051 7.669873 0.000000 0.000000 0.000000 0.000000 0.000000 0.000000 0.000000 0.000000 0.000000 0.000000 0.000000 0.000000 0.000000 0.000000 0.000000 12.990381 0.000000 0.000000 6.495191 0.000000 0.000000 0.000000 0.000000 0.000000 -12.990381 0.000000 0.000000 -6.495191 0.000000 0.000000 0.000000 0.000000 0.000000 8.660254 0.000000 0.000000 2.598076 0.000000 0.000000 0.000000 0.000000 0.000000 -8.660254 0.000000 0.000000 -2.598076 0.000000 0.000000 0.000000 0.000000 0.000000
-2.310054 102.510117 7.732273 0.000000 0.000000 0.000000 0.000000 0.000000 0.000000 0.000000 0.000000 0.000000 0.000000 0.000000 0.000000 0.000000 0.000000 0.000000 7.376516 0.000000 0.000000 3.688258 0.000000 0.000000 0.000000 0.000000 0.000000 -7.376516 0.000000 0.000000 -3.688258 0.000000 0.000000 0.000000 0.000000 0.000000 12.550583 0.000000 0.000000 3.765175 0.000000 0.000000 0.000000 0.000000 0.000000 -12.550583 0.000000 0.000000 -3.765175 0.000000 0.000000 0.000000 0.000000 0.000000
-2.402113 103.090170 7.844717 0.000000 0.000000 0.000000 0.000000 0.000000 0.000000 0.000000 0.000000 0.000000 0.000000 0.000000 0.000000 0.000000 0.000000 0.000000 3.367710 0.000000 0.000000 1.683855 0.000000 0.000000 0.000000 0.000000 0.000000 -3.367710 0.000000 0.000000 -1.683855 0.000000 0.000000 0.000000 0.000000 0.000000 15.450850 0.000000 0.000000 4.635255 0.000000 0.000000 0.000000 0.000000 0.000000 -15.450850 0.000000 0.000000 -4.635255 0.000000 0.000000 0.000000 0.000000 0.000000
-2.439258 103.527252 8.009262 0.000000 0.000000 0.000000 0.000000 0.000000 0.000000 0.000000 0.000000 0.000000 0.000000 0.000000 0.000000 0.000000 0.000000 0.000000 1.054927 0.000000 0.000000 0.527463 0.000000 0.000000 0.000000 0.000000 0.000000 -1.054927 0.000000 0.000000 -0.527463 0.000000 0.000000 0.000000 0.000000 0.000000 17.636260 0.000000 0.000000 5.290878 0.000000 0.000000 0.000000 0.000000 0.000000 -17.636260 0.000000 0.000000 -5.290878 0.000000 0.000000 0.000000 0.000000 0.000000
-2.422056 103.888809 8.227391 0.000000 0.000000 0.000000 0.000000 0.000000 0.000000 0.000000 0.000000 0.000000 0.000000 0.000000 0.000000 0.000000 0.000000 0.000000 0.136301 0.000000 0.000000 0.068151 0.000000 0.000000 0.000000 0.000000 0.000000 -0.136301 0.000000 0.000000 -0.068151 0.000000 0.000000 0.000000 0.000000 0.000000 19.444044 0.000000 0.000000 5.833213 0.000000 0.000000 0.000000 0.000000 0.000000 -19.444044 0.000000 0.000000 -5.833213 0.000000 0.000000 0.000000 0.000000 0.000000
-2.353553 104.242641 8.500000 0.000000 0.000000 0.000000 0.000000 0.000000 0.000000 0.000000 0.000000 0.000000 0.000000 0.000000 0.000000 0.000000 0.000000 0.000000 0.000000 0.000000 0.000000 0.000000 0.000000 0.000000 0.000000 0.000000 0.000000 -0.000000 0.000000 0.000000 -0.000000 0.000000 0.000000 0.000000 0.000000 0.000000 21.213203 0.000000 0.000000 6.363961 0.000000 0.000000 0.000000 0.000000 0.000000 -21.213203 0.000000 0.000000 -6.363961 0.000000 0.000000 0.000000 0.000000 0.000000
-2.239044 104.645045 8.827391 0.000000 0.000000 0.000000 0.000000 0.000000 0.000000 0.000000 0.000000 0.000000 0.000000 0.000000 0.000000 0.000000 0.000000 0.000000 -0.136301 0.000000 0.000000 -0.068151 0.000000 0.000000 0.000000 0.000000 0.000000 0.136301 0.000000 0.000000 0.068151 0.000000 0.000000 0.000000 0.000000 0.000000 23.225225 0.000000 0.000000 6.967568 0.000000 0.000000 0.000000 0.000000 0.000000 -23.225225 0.000000 0.000000 -6.967568 0.000000 0.000000 0.000000 0.000000 0.000000
-2.085705 105.130793 9.209262 0.000000 0.000000 0.000000 0.000000 0.000000 0.000000 0.000000 0.000000 0.000000 0.000000 0.000000 0.000000 0.000000 0.000000 0.000000 -1.054927 0.000000 0.000000 -0.527463 0.000000 0.000000 0.000000 0.000000 0.000000 1.054927 0.000000 0.000000 0.527463 0.000000 0.000000 0.000000 0.000000 0.000000 25.653966 0.000000 0.000000 7.696190 0.000000 0.000000 0.000000 0.000000 0.000000 -25.653966 0.000000 0.000000 -7.696190 0.000000 0.000000 0.000000 0.000000 0.000000
-1.902113 105.706339 9.644717 0.000000 0.000000 0.000000 0.000000 0.000000 0.000000 0.000000 0.000000 0.000000 0.000000 0.000000 0.000000 0.000000 0.000000 0.000000 -3.367710 0.000000 0.000000 -1.683855 0.000000 0.000000 0.000000 0.000000 0.000000 3.367710 0.000000 0.000000 1.683855 0.000000 0.000000 0.000000 0.000000 0.000000 28.531695 0.000000 0.000000 8.559509 0.000000 0.000000 0.000000 0.000000 0.000000 -28.531695 0.000000 0.000000 -8.559509 0.000000 0.000000 0.000000 0.000000 0.000000
-1.697681 106.347215 10.132273 0.000000 0.000000 0.000000 0.000000 0.000000 0.000000 0.000000 0.000000 0.000000 0.000000 0.000000 0.000000 0.000000 0.000000 0.000000 -7.376516 0.000000 0.000000 -3.688258 0.000000 0.000000 0.000000 0.000000 0.000000 7.376516 0.000000 0.000000 3.688258 0.000000 0.000000 0.000000 0.000000 0.000000 31.736074 0.000000 0.000000 9.520822 0.000000 0.000000 0.000000 0.000000 0.000000 -31.736074 0.000000 0.000000 -9.520822 0.000000 0.000000 0.000000 0.000000 0.000000
-1.482051 107.000000 10.669873 0.000000 0.000000 0.000000 0.000000 0.000000 0.000000 0.000000 0.000000 0.000000 0.000000 0.000000 0.000000 0.000000 0.000000 0.000000 -12.990381 0.000000 0.000000 -6.495191 0.000000 0.000000 0.000000 0.000000 0.000000 12.990381 0.000000 0.000000 6.495191 0.000000 0.000000 0.000000 0.000000 0.000000 35.000000 0.000000 0.000000 10.500000 0.000000 0.000000 0.000000 0.000000 0.000000 -35.000000 0.000000 0.000000 -10.500000 0.000000 0.000000 0.000000 0.000000 0.000000
-1.264481 107.588638 11.254915 0.000000 0.000000 0.000000 0.000000 0.000000 0.000000 0.000000 0.000000 0.000000 0.000000 0.000000 0.000000 0.000000 0.000000 0.000000 -19.714917 0.000000 0.000000 -9.857458 0.000000 0.000000 0.000000 0.000000 0.000000 19.714917 0.000000 0.000000 9.857458 0.000000 0.000000 0.000000 0.000000 0.000000 37.943189 0.000000 0.000000 11.382957 0.000000 0.000000 0.000000 0.000000 0.000000 -37.943189 0.000000 0.000000 -11.382957 0.000000 0.000000 0.000000 0.000000 0.000000
-1.053277 108.024276 11.884276 0.000000 0.000000 0.000000 0.000000 0.000000 0.000000 0.000000 0.000000 0.000000 0.000000 0.000000 0.000000 0.000000 0.000000 0.000000 -26.716981 0.000000 0.000000 -13.358491 0.000000 0.000000 0.000000 0.000000 0.000000 26.716981 0.000000 0.000000 13.358491 0.000000 0.000000 0.000000 0.000000 0.000000 40.121378 0.000000 0.000000 12.036413 0.000000 0.000000 0.000000 0.000000 0.000000 -40.121378 0.000000 0.000000 -12.036413 0.000000 0.000000 0.000000 0.000000 0.000000
-0.855298 108.217330 12.554347 0.000000 0.000000 0.000000 0.000000 0.000000 0.000000 0.000000 0.000000 0.000000 0.000000 0.000000 0.000000 0.000000 0.000000 0.000000 -32.954332 0.000000 0.000000 -16.477166 0.000000 0.000000 0.000000 0.000000 0.000000 32.954332 0.000000 0.000000 16.477166 0.000000 0.000000 0.000000 0.000000 0.000000 41.086651 0.000000 0.000000 12.325995 0.000000 0.000000 0.000000 0.000000 0.000000 -41.086651 0.000000 0.000000 -12.325995 0.000000 0.000000 0.000000 0.000000 0.000000
-0.675571 108.090170 13.261074 0.000000 0.000000 0.000000 0.000000 0.000000 0.000000 0.000000 0.000000 0.000000 0.000000 0.000000 0.000000 0.000000 0.000000 0.000000 -37.348474 0.000000 0.000000 -18.674237 0.000000 0.000000 0.000000 0.000000 0.000000 37.348474 0.000000 0.000000 18.674237 0.000000 0.000000 0.000000 0.000000 0.000000 40.450850 0.000000 0.000000 12.135255 0.000000 0.000000 0.000000 0.000000 0.000000 -40.450850 0.000000 0.000000 -12.135255 0.000000 0.000000 0.000000 0.000000 0.000000
-0.517037 107.588706 14.000000 0.000000 0.000000 0.000000 0.000000 0.000000 0.000000 0.000000 0.000000 0.000000 0.000000 0.000000 0.000000 0.000000 0.000000 0.000000 -38.971143 0.000000 0.000000 -19.485572 0.000000 0.000000 0.000000 0.000000 0.000000 38.971143 0.000000 0.000000 19.485572 0.000000 0.000000 0.000000 0.000000 0.000000 37.943530 0.000000 0.000000 11.383059 0.000000 0.000000 0.000000 0.000000 0.000000 -37.943530 0.000000 0.000000 -11.383059 0.000000 0.000000 0.000000 0.000000 0.000000
-0.380461 106.691326 14.766317 0.000000 0.000000 0.000000 0.000000 0.000000 0.000000 0.000000 0.000000 0.000000 0.000000 0.000000 0.000000 0.000000 0.000000 0.000000 -37.212173 0.000000 0.000000 -18.606087 0.000000 0.000000 0.000000 0.000000 0.000000 37.212173 0.000000 0.000000 18.606087 0.000000 0.000000 0.000000 0.000000 0.000000 33.456629 0.000000 0.000000 10.036989 0.000000 0.000000 0.000000 0.000000 0.000000 -33.456629 0.000000 0.000000 -10.036989 0.000000 0.000000 0.000000 0.000000 0.000000
-0.264481 105.413937 15.554915 0.000000 0.000000 0.000000 0.000000 0.000000 0.000000 0.000000 0.000000 0.000000 0.000000 0.000000 0.000000 0.000000 0.000000 0.000000 -31.899405 0.000000 0.000000 -15.949703 0.000000 0.000000 0.000000 0.000000 0.000000 31.899405 0.000000 0.000000 15.949703 0.000000 0.000000 0.000000 0.000000 0.000000 27.069685 0.000000 0.000000 8.120906 0.000000 0.000000 0.000000 0.000000 0.000000 -27.069685 0.000000 0.000000 -8.120906 0.000000 0.000000 0.000000 0.000000 0.000000
-0.165823 103.810397 16.360442 0.000000 0.000000 0.000000 0.000000 0.000000 0.000000 0.000000 0.000000 0.000000 0.000000 0.000000 0.000000 0.000000 0.000000 0.000000 -23.349272 0.000000 0.000000 -11.674636 0.000000 0.000000 0.000000 0.000000 0.000000 23.349272 0.000000 0.000000 11.674636 0.000000 0.000000 0.000000 0.000000 0.000000 19.051986 0.000000 0.000000 5.715596 0.000000 0.000000 0.000000 0.000000 0.000000 -19.051986 0.000000 0.000000 -5.715596 0.000000 0.000000 0.000000 0.000000 0.000000
-0.079647 101.968212 17.177358 0.000000 0.000000 0.000000 0.000000 0.000000 0.000000 0.000000 0.000000 0.000000 0.000000 0.000000 0.000000 0.000000 0.000000 0.000000 -12.338400 0.000000 0.000000 -6.169200 0.000000 0.000000 0.000000 0.000000 0.000000 12.338400 0.000000 0.000000 6.169200 0.000000 0.000000 0.000000 0.000000 0.000000 9.841058 0.000000 0.000000 2.952317 0.000000 0.000000 0.000000 0.000000 0.000000 -9.841058 0.000000 0.000000 -2.952317 0.000000 0.000000 0.000000 0.000000 0.000000
-0.000000 100.000000 18.000000 0.000000 0.000000 0.000000 0.000000 0.000000 0.000000 0.000000 0.000000 0.000000 0.000000 0.000000 0.000000 0.000000 0.000000 0.000000 -0.000000 0.000000 0.000000 -0.000000 0.000000 0.000000 0.000000 0.000000 0.000000 0.000000 0.000000 0.000000 0.000000 0.000000 0.000000 0.000000 0.000000 0.000000 0.000000 0.000000 0.000000 0.000000 0.000000 0.000000 0.000000 0.000000 0.000000 -0.000000 0.000000 0.000000 -0.000000 0.000000 0.000000 0.000000 0.000000 0.000000
0.079647 100.534740 18.822642 0.000000 0.000000 0.000000 0.000000 0.000000 0.000000 0.000000 0.000000 0.000000 0.000000 0.000000 0.000000 0.000000 0.000000 0.000000 12.338400 0.000000 0.000000 6.169200 0.000000 0.000000 0.000000 0.000000 0.000000 -12.338400 0.000000 0.000000 -6.169200 0.000000 0.000000 0.000000 0.000000 0.000000 -9.841058 0.000000 0.000000 -2.952317 0.000000 0.000000 0.000000 0.000000 0.000000 9.841058 0.000000 0.000000 2.952317 0.000000 0.000000 0.000000 0.000000 0.000000
0.165823 101.133875 19.639558 0.000000 0.000000 0.000000 0.000000 0.000000 0.000000 0.000000 0.000000 0.000000 0.000000 0.000000 0.000000 0.000000 0.000000 0.000000 23.349272 0.000000 0.000000 11.674636 0.000000 0.000000 0.000000 0.000000 0.000000 -23.349272 0.000000 0.000000 -11.674636 0.000000 0.000000 0.000000 0.000000 0.000000 -19.051986 0.000000 0.000000 -5.715596 0.000000 0.000000 0.000000 0.000000 0.000000 19.051986 0.000000 0.000000 5.715596 0.000000 0.000000 0.000000 0.000000 0.000000
0.264481 101.849911 20.445085 0.000000 0.000000 0.000000 0.000000 0.000000 0.000000 0.000000 0.000000 0.000000 0.000000 0.000000 0.000000 0.000000 0.000000 0.000000 31.899405 0.000000 0.000000 15.949703 0.000000 0.000000 0.000000 0.000000 0.000000 -31.899405 0.000000 0.000000 -15.949703 0.000000 0.000000 0.000000 0.000000 0.000000 -27.069685 0.000000 0.000000 -8.120906 0.000000 0.000000 0.000000 0.000000 0.000000 27.069685 0.000000 0.000000 8.120906 0.000000 0.000000 0.000000 0.000000 0.000000
0.380461 102.713238 21.233683 0.000000 0.000000 0.000000 0.000000 0.000000 0.000000 0.000000 0.000000 0.000000 0.000000 0.000000 0.000000 0.000000 0.000000 0.000000 37.212173 0.000000 0.000000 18.606087 0.000000 0.000000 0.000000 0.000000 0.000000 -37.212173 0.000000 0.000000 -18.606087 0.000000 0.000000 0.000000 0.000000 0.000000 -33.456629 0.000000 0.000000 -10.036989 0.000000 0.000000 0.000000 0.000000 0.000000 33.456629 0.000000 0.000000 10.036989 0.000000 0.000000 0.000000 0.000000 0.000000
0.517037 103.725003 22.000000 0.000000 0.000000 0.000000 0.000000 0.000000 0.000000 0.000000 0.000000 0.000000 0.000000 0.000000 0.000000 0.000000 0.000000 0.000000 38.971143 0.000000 0.000000 19.485572 0.000000 0.000000 0.000000 0.000000 0.000000 -38.971143 0.000000 0.000000 -19.485572 0.000000 0.000000 0.000000 0.000000 0.000000 -37.943530 0.000000 0.000000 -11.383059 0.000000 0.000000 0.000000 0.000000 0.000000 37.943530 0.000000 0.000000 11.383059 0.000000 0.000000 0.000000 0.000000 0.000000
0.675571 104.854102 22.738926 0.000000 0.000000 0.000000 0.000000 0.000000 0.000000 0.000000 0.000000 0.000000 0.000000 0.000000 0.000000 0.000000 0.000000 0.000000 37.348474 0.000000 0.000000 18.674237 0.000000 0.000000 0.000000 0.000000 0.000000 -37.348474 0.000000 0.000000 -18.674237 0.000000 0.000000 0.000000 0.000000 0.000000 -40.450850 0.000000 0.000000 -12.135255 0.000000 0.000000 0.000000 0.000000 0.000000 40.450850 0.000000 0.000000 12.135255 0.000000 0.000000 0.000000 0.000000 0.000000
0.855298 106.038774 23.445653 0.000000 0.000000 0.000000 0.000000 0.000000 0.000000 0.000000 0.000000 0.000000 0.000000 0.000000 0.000000 0.000000 0.000000 0.000000 32.954332 0.000000 0.000000 16.477166 0.000000 0.000000 0.000000 0.000000 0.000000 -32.954332 0.000000 0.000000 -16.477166 0.000000 0.000000 0.000000 0.000000 0.000000 -41.086651 0.000000 0.000000 -12.325995 0.000000 0.000000 0.000000 0.000000 0.000000 41.086651 0.000000 0.000000 12.325995 0.000000 0.000000 0.000000 0.000000 0.000000
1.053277 107.192629 24.115724 0.000000 0.000000 0.000000 0.000000 0.000000 0.000000 0.000000 0.000000 0.000000 0.000000 0.000000 0.000000 0.000000 0.000000 0.000000 26.716981 0.000000 0.000000 13.358491 0.000000 0.000000 0.000000 0.000000 0.000000 -26.716981 0.000000 0.000000 -13.358491 0.000000 0.000000 0.000000 0.000000 0.000000 -40.121378 0.000000 0.000000 -12.036413 0.000000 0.000000 0.000000 0.000000 0.000000 40.121378 0.000000 0.000000 12.036413 0.000000 0.000000 0.000000 0.000000 0.000000
1.264481 108.214376 24.745085 0.000000 0.000000 0.000000 0.000000 0.000000 0.000000 0.000000 0.000000 0.000000 0.000000 0.000000 0.000000 0.000000 0.000000 0.000000 19.714917 0.000000 0.000000 9.857458 0.000000 0.000000 0.000000 0.000000 0.000000 -19.714917 0.000000 0.000000 -9.857458 0.000000 0.000000 0.000000 0.000000 0.000000 -37.943189 0.000000 0.000000 -11.382957 0.000000 0.000000 0.000000 0.000000 0.000000 37.943189 0.000000 0.000000 11.382957 0.000000 0.000000 0.000000 0.000000 0.000000
1.482051 109.000000 25.330127 0.000000 0.000000 0.000000 0.000000 0.000000 0.000000 0.000000 0.000000 0.000000 0.000000 0.000000 0.000000 0.000000 0.000000 0.000000 12.990381 0.000000 0.000000 6.495191 0.000000 0.000000 0.000000 0.000000 0.000000 -12.990381 0.000000 0.000000 -6.495191 0.000000 0.000000 0.000000 0.000000 0.000000 -35.000000 0.000000 0.000000 -10.500000 0.000000 0.000000 0.000000 0.000000 0.000000 35.000000 0.000000 0.000000 10.500000 0.000000 0.000000 0.000000 0.000000 0.000000
1.697681 109.455799 25.867727 0.000000 0.000000 0.000000 0.000000 0.000000 0.000000 0.000000 0.000000 0.000000 0.000000 0.000000 0.000000 0.000000 0.000000 0.000000 7.376516 0.000000 0.000000 3.688258 0.000000 0.000000 0.000000 0.000000 0.000000 -7.376516 0.000000 0.000000 -3.688258 0.000000 0.000000 0.000000 0.000000 0.000000 -31.736074 0.000000 0.000000 -9.520822 0.000000 0.000000 0.000000 0.000000 0.000000 31.736074 0.000000 0.000000 9.520822 0.000000 0.000000 0.000000 0.000000 0.000000
1.902113 109.510565 26.355283 0.000000 0.000000 0.000000 0.000000 0.000000 0.000000 0.000000 0.000000 0.000000 0.000000 0.000000 0.000000 0.000000 0.000000 0.000000 3.367710 0.000000 0.000000 1.683855 0.000000 0.000000 0.000000 0.000000 0.000000 -3.367710 0.000000 0.000000 -1.683855 0.000000 0.000000 0.000000 0.000000 0.000000 -28.531695 0.000000 0.000000 -8.559509 0.000000 0.000000 0.000000 0.000000 0.000000 28.531695 0.000000 0.000000 8.559509 0.000000 0.000000 0.000000 0.000000 0.000000
2.085705 109.125311 26.790738 0.000000 0.000000 0.000000 0.000000 0.000000 0.000000 0.000000 0.000000 0.000000 0.000000 0.000000 0.000000 0.000000 0.000000 0.000000 1.054927 0.000000 0.000000 0.527463 0.000000 0.000000 0.000000 0.000000 0.000000 -1.054927 0.000000 0.000000 -0.527463 0.000000 0.000000 0.000000 0.000000 0.000000 -25.653966 0.000000 0.000000 -7.696190 0.000000 0.000000 0.000000 0.000000 0.000000 25.653966 0.000000 0.000000 7.696190 0.000000 0.000000 0.000000 0.000000 0.000000
2.239044 108.299227 27.172609 0.000000 0.000000 0.000000 0.000000 0.000000 0.000000 0.000000 0.000000 0.000000 0.000000 0.000000 0.000000 0.000000 0.000000 0.000000 0.136301 0.000000 0.000000 0.068151 0.000000 0.000000 0.000000 0.000000 0.000000 -0.136301 0.000000 0.000000 -0.068151 0.000000 0.000000 0.000000 0.000000 0.000000 -23.225225 0.000000 0.000000 -6.967568 0.000000 0.000000 0.000000 0.000000 0.000000 23.225225 0.000000 0.000000 6.967568 0.000000 0.000000 0.000000 0.000000 0.000000
2.353553 107.071068 27.500000 0.000000 0.000000 0.000000 0.000000 0.000000 0.000000 0.000000 0.000000 0.000000 0.000000 0.000000 0.000000 0.000000 0.000000 0.000000 0.000000 0.000000 0.000000 0.000000 0.000000 0.000000 0.000000 0.000000 0.000000 0.000000 0.000000 0.000000 0.000000 0.000000 0.000000 0.000000 0.000000 0.000000 -21.213203 0.000000 0.000000 -6.363961 0.000000 0.000000 0.000000 0.000000 0.000000 21.213203 0.000000 0.000000 6.363961 0.000000 0.000000 0.000000 0.000000 0.000000
2.422056 105.515755 27.772609 0.000000 0.000000 0.000000 0.000000 0.000000 0.000000 0.000000 0.000000 0.000000 0.000000 0.000000 0.000000 0.000000 0.000000 0.000000 -0.136301 0.000000 0.000000 -0.068151 0.000000 0.000000 0.000000 0.000000 0.000000 0.136301 0.000000 0.000000 0.068151 0.000000 0.000000 0.000000 0.000000 0.000000 -19.444044 0.000000 0.000000 -5.833213 0.000000 0.000000 0.000000 0.000000 0.000000 19.444044 0.000000 0.000000 5.833213 0.000000 0.000000 0.000000 0.000000 0.000000
2.439258 103.736596 27.990738 0.000000 0.000000 0.000000 0.000000 0.000000 0.000000 0.000000 0.000000 0.000000 0.000000 0.000000 0.000000 0.000000 0.000000 0.000000 -1.054927 0.000000 0.000000 -0.527463 0.000000 0.000000 0.000000 0.000000 0.000000 1.054927 0.000000 0.000000 0.527463 0.000000 0.000000 0.000000 0.000000 0.000000 -17.636260 0.000000 0.000000 -5.290878 0.000000 0.000000 0.000000 0.000000 0.000000 17.636260 0.000000 0.000000 5.290878 0.000000 0.000000 0.000000 0.000000 0.000000
2.402113 101.854102 28.155283 0.000000 0.000000 0.000000 0.000000 0.000000 0.000000 0.000000 0.000000 0.000000 0.000000 0.000000 0.000000 0.000000 0.000000 0.000000 -3.367710 0.000000 0.000000 -1.683855 0.000000 0.000000 0.000000 0.000000 0.000000 3.367710 0.000000 0.000000 1.683855 0.000000 0.000000 0.000000 0.000000 0.000000 -15.450850 0.000000 0.000000 -4.635255 0.000000 0.000000 0.000000 0.000000 0.000000 15.450850 0.000000 0.000000 4.635255 0.000000 0.000000 0.000000 0.000000 0.000000
2.310054 99.992835 28.267727 0.000000 0.000000 0.000000 0.000000 0.000000 0.000000 0.000000 0.000000 0.000000 0.000000 0.000000 0.000000 0.000000 0.000000 0.000000 -7.376516 0.000000 0.000000 -3.688258 0.000000 0.000000 0.000000 0.000000 0.000000 7.376516 0.000000 0.000000 3.688258 0.000000 0.000000 0.000000 0.000000 0.000000 -12.550583 0.000000 0.000000 -3.765175 0.000000 0.000000 0.000000 0.000000 0.000000 12.550583 0.000000 0.000000 3.765175 0.000000 0.000000 0.000000 0.000000 0.000000
2.165064 98.267949 28.330127 0.000000 0.000000 0.000000 0.000000 0.000000 0.000000 0.000000 0.000000 0.000000 0.000000 0.000000 0.000000 0.000000 0.000000 0.000000 -12.990381 0.000000 0.000000 -6.495191 0.000000 0.000000 0.000000 0.000000 0.000000 12.990381 0.000000 0.000000 6.495191 0.000000 0.000000 0.000000 0.000000 0.000000 -8.660254 0.000000 0.000000 -2.598076 0.000000 0.000000 0.000000 0.000000 0.000000 8.660254 0.000000 0.000000 2.598076 0.000000 0.000000 0.000000 0.000000 0.000000
1.971587 99.276099 28.345085 0.000000 0.000000 0.000000 0.000000 0.000000 0.000000 0.000000 0.000000 0.000000 0.000000 0.000000 0.000000 0.000000 0.000000 0.000000 -19.714917 0.000000 0.000000 -9.857458 0.000000 0.000000 0.000000 0.000000 0.000000 19.714917 0.000000 0.000000 9.857458 0.000000 0.000000 0.000000 0.000000 0.000000 -3.619505 0.000000 0.000000 -1.085851 0.000000 0.000000 0.000000 0.000000 0.000000 3.619505 0.000000 0.000000 1.085851 0.000000 0.000000 0.000000 0.000000 0.000000
1.736290 100.515841 28.315724 0.000000 0.000000 0.000000 0.000000 0.000000 0.000000 0.000000 0.000000 0.000000 0.000000 0.000000 0.000000 0.000000 0.000000 0.000000 -26.716981 0.000000 0.000000 -13.358491 0.000000 0.000000 0.000000 0.000000 0.000000 26.716981 0.000000 0.000000 13.358491 0.000000 0.000000 0.000000 0.000000 0.000000 2.579204 0.000000 0.000000 0.773761 0.000000 0.000000 0.000000 0.000000 0.000000 -2.579204 0.000000 0.000000 -0.773761 0.000000 0.000000 0.000000 0.000000 0.000000
1.467671 101.954583 28.245653 0.000000 0.000000 0.000000 0.000000 0.000000 0.000000 0.000000 0.000000 0.000000 0.000000 0.000000 0.000000 0.000000 0.000000 0.000000 -32.954332 0.000000 0.000000 -16.477166 0.000000 0.000000 0.000000 0.000000 0.000000 32.954332 0.000000 0.000000 16.477166 0.000000 0.000000 0.000000 0.000000 0.000000 9.772914 0.000000 0.000000 2.931874 0.000000 0.000000 0.000000 0.000000 0.000000 -9.772914 0.000000 0.000000 -2.931874 0.000000 0.000000 0.000000 0.000000 0.000000
1.175571 103.526712 28.138926 0.000000 0.000000 0.000000 0.000000 0.000000 0.000000 0.000000 0.000000 0.000000 0.000000 0.000000 0.000000 0.000000 0.000000 0.000000 -37.348474 0.000000 0.000000 -18.674237 0.000000 0.000000 0.000000 0.000000 0.000000 37.348474 0.000000 0.000000 18.674237 0.000000 0.000000 0.000000 0.000000 0.000000 17.633558 0.000000 0.000000 5.290067 0.000000 0.000000 0.000000 0.000000 0.000000 -17.633558 0.000000 0.000000 -5.290067 0.000000 0.000000 0.000000 0.000000 0.000000
0.870590 105.139216 28.000000 0.000000 0.000000 0.000000 0.000000 0.000000 0.000000 0.000000 0.000000 0.000000 0.000000 0.000000 0.000000 0.000000 0.000000 0.000000 -38.971143 0.000000 0.000000 -19.485572 0.000000 0.000000 0.000000 0.000000 0.000000 38.971143 0.000000 0.000000 19.485572 0.000000 0.000000 0.000000 0.000000 0.000000 25.696081 0.000000 0.000000 7.708824 0.000000 0.000000 0.000000 0.000000 0.000000 -25.696081 0.000000 0.000000 -7.708824 0.000000 0.000000 0.000000 0.000000 0.000000
0.563473 106.681193 27.833683 0.000000 0.000000 0.000000 0.000000 0.000000 0.000000 0.000000 0.000000 0.000000 0.000000 0.000000 0.000000 0.000000 0.000000 0.000000 -37.212173 0.000000 0.000000 -18.606087 0.000000 0.000000 0.000000 0.000000 0.000000 37.212173 0.000000 0.000000 18.606087 0.000000 0.000000 0.000000 0.000000 0.000000 33.405964 0.000000 0.000000 10.021789 0.000000 0.000000 0.000000 0.000000 0.000000 -33.405964 0.000000 0.000000 -10.021789 0.000000 0.000000 0.000000 0.000000 0.000000
0.264481 108.036033 27.645085 0.000000 0.000000 0.000000 0.000000 0.000000 0.000000 0.000000 0.000000 0.000000 0.000000 0.000000 0.000000 0.000000 0.000000 0.000000 -31.899405 0.000000 0.000000 -15.949703 0.000000 0.000000 0.000000 0.000000 0.000000 31.899405 0.000000 0.000000 15.949703 0.000000 0.000000 0.000000 0.000000 0.000000 40.180166 0.000000 0.000000 12.054050 0.000000 0.000000 0.000000 0.000000 0.000000 -40.180166 0.000000 0.000000 -12.054050 0.000000 0.000000 0.000000 0.000000 0.000000
-0.017189 109.094742 27.439558 0.000000 0.000000 0.000000 0.000000 0.000000 0.000000 0.000000 0.000000 0.000000 0.000000 0.000000 0.000000 0.000000 0.000000 0.000000 -23.349272 0.000000 0.000000 -11.674636 0.000000 0.000000 0.000000 0.000000 0.000000 23.349272 0.000000 0.000000 11.674636 0.000000 0.000000 0.000000 0.000000 0.000000 45.473709 0.000000 0.000000 13.642113 0.000000 0.000000 0.000000 0.000000 0.000000 -45.473709 0.000000 0.000000 -13.642113 0.000000 0.000000 0.000000 0.000000 0.000000
-0.273906 109.768668 27.222642 0.000000 0.000000 0.000000 0.000000 0.000000 0.000000 0.000000 0.000000 0.000000 0.000000 0.000000 0.000000 0.000000 0.000000 0.000000 -12.338400 0.000000 0.000000 -6.169200 0.000000 0.000000 0.000000 0.000000 0.000000 12.338400 0.000000 0.000000 6.169200 0.000000 0.000000 0.000000 0.000000 0.000000 48.843338 0.000000 0.000000 14.653001 0.000000 0.000000 0.000000 0.000000 0.000000 -48.843338 0.000000 0.000000 -14.653001 0.000000 0.000000 0.000000 0.000000 0.000000
-0.500000 110.000000 27.000000 0.000000 0.000000 0.000000 0.000000 0.000000 0.000000 0.000000 0.000000 0.000000 0.000000 0.000000 0.000000 0.000000 0.000000 0.000000 -0.000000 0.000000 0.000000 -0.000000 0.000000 0.000000 0.000000 0.000000 0.000000 -0.000000 0.000000 0.000000 -0.000000 0.000000 0.000000 0.000000 0.000000 0.000000 50.000000 0.000000 0.000000 15.000000 0.000000 0.000000 0.000000 0.000000 0.000000 -50.000000 0.000000 0.000000 -15.000000 0.000000 0.000000 0.000000 0.000000 0.000000
-0.692020 109.768668 26.777358 0.000000 0.000000 0.000000 0.000000 0.000000 0.000000 0.000000 0.000000 0.000000 0.000000 0.000000 0.000000 0.000000 0.000000 0.000000 12.338400 0.000000 0.000000 6.169200 0.000000 0.000000 0.000000 0.000000 0.000000 -12.338400 0.000000 0.000000 -6.169200 0.000000 0.000000 0.000000 0.000000 0.000000 48.843338 0.000000 0.000000 14.653001 0.000000 0.000000 0.000000 0.000000 0.000000 -48.843338 0.000000 0.000000 -14.653001 0.000000 0.000000 0.000000 0.000000 0.000000
-0.848836 109.094742 26.560442 0.000000 0.000000 0.000000 0.000000 0.000000 0.000000 0.000000 0.000000 0.000000 0.000000 0.000000 0.000000 0.000000 0.000000 0.000000 23.349272 0.000000 0.000000 11.674636 0.000000 0.000000 0.000000 0.000000 0.000000 -23.349272 0.000000 0.000000 -11.674636 0.000000 0.000000 0.000000 0.000000 0.000000 45.473709 0.000000 0.000000 13.642113 0.000000 0.000000 0.000000 0.000000 0.000000 -45.473709 0.000000 0.000000 -13.642113 0.000000 0.000000 0.000000 0.000000 0.000000
-0.971587 108.036033 26.354915 0.000000 0.000000 0.000000 0.000000 0.000000 0.000000 0.000000 0.000000 0.000000 0.000000 0.000000 0.000000 0.000000 0.000000 0.000000 31.899405 0.000000 0.000000 15.949703 0.000000 0.000000 0.000000 0.000000 0.000000 -31.899405 0.000000 0.000000 -15.949703 0.000000 0.000000 0.000000 0.000000 0.000000 40.180166 0.000000 0.000000 12.054050 0.000000 0.000000 0.000000 0.000000 0.000000 -40.180166 0.000000 0.000000 -12.054050 0.000000 0.000000 0.000000 0.000000 0.000000
-1.063473 106.681193 26.166317 0.000000 0.000000 0.000000 0.000000 0.000000 0.000000 0.000000 0.000000 0.000000 0.000000 0.000000 0.000000 0.000000 0.000000 0.000000 37.212173 0.000000 0.000000 18.606087 0.000000 0.000000 0.000000 0.000000 0.000000 -37.212173 0.000000 0.000000 -18.606087 0.000000 0.000000 0.000000 0.000000 0.000000 33.405964 0.000000 0.000000 10.021789 0.000000 0.000000 0.000000 0.000000 0.000000 -33.405964 0.000000 0.000000 -10.021789 0.000000 0.000000 0.000000 0.000000 0.000000
-1.129410 105.139216 26.000000 0.000000 0.000000 0.000000 0.000000 0.000000 0.000000 0.000000 0.000000 0.000000 0.000000 0.000000 0.000000 0.000000 0.000000 0.000000 38.971143 0.000000 0.000000 19.485572 0.000000 0.000000 0.000000 0.000000 0.000000 -38.971143 0.000000 0.000000 -19.485572 0.000000 0.000000 0.000000 0.000000 0.000000 25.696081 0.000000 0.000000 7.708824 0.000000 0.000000 0.000000 0.000000 0.000000 -25.696081 0.000000 0.000000 -7.708824 0.000000 0.000000 0.000000 0.000000 0.000000
-1.175571 103.526712 25.861074 0.000000 0.000000 0.000000 0.000000 0.000000 0.000000 0.000000 0.000000 0.000000 0.000000 0.000000 0.000000 0.000000 0.000000 0.000000 37.348474 0.000000 0.000000 18.674237 0.000000 0.000000 0.000000 0.000000 0.000000 -37.348474 0.000000 0.000000 -18.674237 0.000000 0.000000 0.000000 0.000000 0.000000 17.633558 0.000000 0.000000 5.290067 0.000000 0.000000 0.000000 0.000000 0.000000 -17.633558 0.000000 0.000000 -5.290067 0.000000 0.000000 0.000000 0.000000 0.000000
-1.208852 101.954583 25.754347 0.000000 0.000000 0.000000 0.000000 0.000000 0.000000 0.000000 0.000000 0.000000 0.000000 0.000000 0.000000 0.000000 0.000000 0.000000 32.954332 0.000000 0.000000 16.477166 0.000000 0.000000 0.000000 0.000000 0.000000 -32.954332 0.000000 0.000000 -16.477166 0.000000 0.000000 0.000000 0.000000 0.000000 9.772914 0.000000 0.000000 2.931874 0.000000 0.000000 0.000000 0.000000 0.000000 -9.772914 0.000000 0.000000 -2.931874 0.000000 0.000000 0.000000 0.000000 0.000000
-1.236290 100.515841 25.684276 0.000000 0.000000 0.000000 0.000000 0.000000 0.000000 0.000000 0.000000 0.000000 0.000000 0.000000 0.000000 0.000000 0.000000 0.000000 26.716981 0.000000 0.000000 13.358491 0.000000 0.000000 0.000000 0.000000 0.000000 -26.716981 0.000000 0.000000 -13.358491 0.000000 0.000000 0.000000 0.000000 0.000000 2.579204 0.000000 0.000000 0.773761 0.000000 0.000000 0.000000 0.000000 0.000000 -2.579204 0.000000 0.000000 -0.773761 0.000000 0.000000 0.000000 0.000000 0.000000
-1.264481 99.276099 25.654915 0.000000 0.000000 0.000000 0.000000 0.000000 0.000000 0.000000 0.000000 0.000000 0.000000 0.000000 0.000000 0.000000 0.000000 0.000000 19.714917 0.000000 0.000000 9.857458 0.000000 0.000000 0.000000 0.000000 0.000000 -19.714917 0.000000 0.000000 -9.857458 0.000000 0.000000 0.000000 0.000000 0.000000 -3.619505 0.000000 0.000000 -1.085851 0.000000 0.000000 0.000000 0.000000 0.000000 3.619505 0.000000 0.000000 1.085851 0.000000 0.000000 0.000000 0.000000 0.000000
-1.299038 98.267949 25.669873 0.000000 0.000000 0.000000 0.000000 0.000000 0.000000 0.000000 0.000000 0.000000 0.000000 0.000000 0.000000 0.000000 0.000000 0.000000 12.990381 0.000000 0.000000 6.495191 0.000000 0.000000 0.000000 0.000000 0.000000 -12.990381 0.000000 0.000000 -6.495191 0.000000 0.000000 0.000000 0.000000 0.000000 -8.660254 0.000000 0.000000 -2.598076 0.000000 0.000000 0.000000 0.000000 0.000000 8.660254 0.000000 0.000000 2.598076 0.000000 0.000000 0.000000 0.000000 0.000000
-1.344128 99.992835 25.732273 0.000000 0.000000 0.000000 0.000000 0.000000 0.000000 0.000000 0.000000 0.000000 0.000000 0.000000 0.000000 0.000000 0.000000 0.000000 7.376516 0.000000 0.000000 3.688258 0.000000 0.000000 0.000000 0.000000 0.000000 -7.376516 0.000000 0.000000 -3.688258 0.000000 0.000000 0.000000 0.000000 0.000000 -12.550583 0.000000 0.000000 -3.765175 0.000000 0.000000 0.000000 0.000000 0.000000 12.550583 0.000000 0.000000 3.765175 0.000000 0.000000 0.000000 0.000000 0.000000
-1.402113 101.854102 25.844717 0.000000 0.000000 0.000000 0.000000 0.000000 0.000000 0.000000 0.000000 0.000000 0.000000 0.000000 0.000000 0.000000 0.000000 0.000000 3.367710 0.000000 0.000000 1.683855 0.000000 0.000000 0.000000 0.000000 0.000000 -3.367710 0.000000 0.000000 -1.683855 0.000000 0.000000 0.000000 0.000000 0.000000 -15.450850 0.000000 0.000000 -4.635255 0.000000 0.000000 0.000000 0.000000 0.000000 15.450850 0.000000 0.000000 4.635255 0.000000 0.000000 0.000000 0.000000 0.000000
-1.473332 103.736596 26.009262 0.000000 0.000000 0.000000 0.000000 0.000000 0.000000 0.000000 0.000000 0.000000 0.000000 0.000000 0.000000 0.000000 0.000000 0.000000 1.054927 0.000000 0.000000 0.527463 0.000000 0.000000 0.000000 0.000000 0.000000 -1.054927 0.000000 0.000000 -0.527463 0.000000 0.000000 0.000000 0.000000 0.000000 -17.636260 0.000000 0.000000 -5.290878 0.000000 0.000000 0.000000 0.000000 0.000000 17.636260 0.000000 0.000000 5.290878 0.000000 0.000000 0.000000 0.000000 0.000000
-1.556031 105.515755 26.227391 0.000000 0.000000 0.000000 0.000000 0.000000 0.000000 0.000000 0.000000 0.000000 0.000000 0.000000 0.000000 0.000000 0.000000 0.000000 0.136301 0.000000 0.000000 0.068151 0.000000 0.000000 0.000000 0.000000 0.000000 -0.136301 0.000000 0.000000 -0.068151 0.000000 0.000000 0.000000 0.000000 0.000000 -19.444044 0.000000 0.000000 -5.833213 0.000000 0.000000 0.000000 0.000000 0.000000 19.444044 0.000000 0.000000 5.833213 0.000000 0.000000 0.000000 0.000000 0.000000
-1.646447 107.071068 26.500000 0.000000 0.000000 0.000000 0.000000 0.000000 0.000000 0.000000 0.000000 0.000000 0.000000 0.000000 0.000000 0.000000 0.000000 0.000000 0.000000 0.000000 0.000000 0.000000 0.000000 0.000000 0.000000 0.000000 0.000000 0.000000 0.000000 0.000000 0.000000 0.000000 0.000000 0.000000 0.000000 0.000000 -21.213203 0.000000 0.000000 -6.363961 0.000000 0.000000 0.000000 0.000000 0.000000 21.213203 0.000000 0.000000 6.363961 0.000000 0.000000 0.000000 0.000000 0.000000
-1.739044 108.299227 26.827391 0.000000 0.000000 0.000000 0.000000 0.000000 0.000000 0.000000 0.000000 0.000000 0.000000 0.000000 0.000000 0.000000 0.000000 0.000000 -0.136301 0.000000 0.000000 -0.068151 0.000000 0.000000 0.000000 0.000000 0.000000 0.136301 0.000000 0.000000 0.068151 0.000000 0.000000 0.000000 0.000000 0.000000 -23.225225 0.000000 0.000000 -6.967568 0.000000 0.000000 0.000000 0.000000 0.000000 23.225225 0.000000 0.000000 6.967568 0.000000 0.000000 0.000000 0.000000 0.000000
-1.826886 109.125311 27.209262 0.000000 0.000000 0.000000 0.000000 0.000000 0.000000 0.000000 0.000000 0.000000 0.000000 0.000000 0.000000 0.000000 0.000000 0.000000 -1.054927 0.000000 0.000000 -0.527463 0.000000 0.000000 0.000000 0.000000 0.000000 1.054927 0.000000 0.000000 0.527463 0.000000 0.000000 0.000000 0.000000 0.000000 -25.653966 0.000000 0.000000 -7.696190 0.000000 0.000000 0.000000 0.000000 0.000000 25.653966 0.000000 0.000000 7.696190 0.000000 0.000000 0.000000 0.000000 0.000000
-1.902113 109.510565 27.644717 0.000000 0.000000 0.000000 0.000000 0.000000 0.000000 0.000000 0.000000 0.000000 0.000000 0.000000 0.000000 0.000000 0.000000 0.000000 -3.367710 0.000000 0.000000 -1.683855 0.000000 0.000000 0.000000 0.000000 0.000000 3.367710 0.000000 0.000000 1.683855 0.000000 0.000000 0.000000 0.000000 0.000000 -28.531695 0.000000 0.000000 -8.559509 0.000000 0.000000 0.000000 0.000000 0.000000 28.531695 0.000000 0.000000 8.559509 0.000000 0.000000 0.000000 0.000000 0.000000
-1.956500 109.455799 28.132273 0.000000 0.000000 0.000000 0.000000 0.000000 0.000000 0.000000 0.000000 0.000000 0.000000 0.000000 0.000000 0.000000 0.000000 0.000000 -7.376516 0.000000 0.000000 -3.688258 0.000000 0.000000 0.000000 0.000000 0.000000 7.376516 0.000000 0.000000 3.688258 0.000000 0.000000 0.000000 0.000000 0.000000 -31.736074 0.000000 0.000000 -9.520822 0.000000 0.000000 0.000000 0.000000 0.000000 31.736074 0.000000 0.000000 9.520822 0.000000 0.000000 0.000000 0.000000 0.000000
-1.982051 109.000000 28.669873 0.000000 0.000000 0.000000 0.000000 0.000000 0.000000 0.000000 0.000000 0.000000 0.000000 0.000000 0.000000 0.000000 0.000000 0.000000 -12.990381 0.000000 0.000000 -6.495191 0.000000 0.000000 0.000000 0.000000 0.000000 12.990381 0.000000 0.000000 6.495191 0.000000 0.000000 0.000000 0.000000 0.000000 -35.000000 0.000000 0.000000 -10.500000 0.000000 0.000000 0.000000 0.000000 0.000000 35.000000 0.000000 0.000000 10.500000 0.000000 0.000000 0.000000 0.000000 0.000000
-1.971587 108.214376 29.254915 0.000000 0.000000 0.000000 0.000000 0.000000 0.000000 0.000000 0.000000 0.000000 0.000000 0.000000 0.000000 0.000000 0.000000 0.000000 -19.714917 0.000000 0.000000 -9.857458 0.000000 0.000000 0.000000 0.000000 0.000000 19.714917 0.000000 0.000000 9.857458 0.000000 0.000000 0.000000 0.000000 0.000000 -37.943189 0.000000 0.000000 -11.382957 0.000000 0.000000 0.000000 0.000000 0.000000 37.943189 0.000000 0.000000 11.382957 0.000000 0.000000 0.000000 0.000000 0.000000
-1.919302 107.192629 29.884276 0.000000 0.000000 0.000000 0.000000 0.000000 0.000000 0.000000 0.000000 0.000000 0.000000 0.000000 0.000000 0.000000 0.000000 0.000000 -26.716981 0.000000 0.000000 -13.358491 0.000000 0.000000 0.000000 0.000000 0.000000 26.716981 0.000000 0.000000 13.358491 0.000000 0.000000 0.000000 0.000000 0.000000 -40.121378 0.000000 0.000000 -12.036413 0.000000 0.000000 0.000000 0.000000 0.000000 40.121378 0.000000 0.000000 12.036413 0.000000 0.000000 0.000000 0.000000 0.000000
-1.821224 106.038774 30.554347 0.000000 0.000000 0.000000 0.000000 0.000000 0.000000 0.000000 0.000000 0.000000 0.000000 0.000000 0.000000 0.000000 0.000000 0.000000 -32.954332 0.000000 0.000000 -16.477166 0.000000 0.000000 0.000000 0.000000 0.000000 32.954332 0.000000 0.000000 16.477166 0.000000 0.000000 0.000000 0.000000 0.000000 -41.086651 0.000000 0.000000 -12.325995 0.000000 0.000000 0.000000 0.000000 0.000000 41.086651 0.000000 0.000000 12.325995 0.000000 0.000000 0.000000 0.000000 0.000000
-1.675571 104.854102 31.261074 0.000000 0.000000 0.000000 0.000000 0.000000 0.000000 0.000000 0.000000 0.000000 0.000000 0.000000 0.000000 0.000000 0.000000 0.000000 -37.348474 0.000000 0.000000 -18.674237 0.000000 0.000000 0.000000 0.000000 0.000000 37.348474 0.000000 0.000000 18.674237 0.000000 0.000000 0.000000 0.000000 0.000000 -40.450850 0.000000 0.000000 -12.135255 0.000000 0.000000 0.000000 0.000000 0.000000 40.450850 0.000000 0.000000 12.135255 0.000000 0.000000 0.000000 0.000000 0.000000
-1.482963 103.725003 32.000000 0.000000 0.000000 0.000000 0.000000 0.000000 0.000000 0.000000 0.000000 0.000000 0.000000 0.000000 0.000000 0.000000 0.000000 0.000000 -38.971143 0.000000 0.000000 -19.485572 0.000000 0.000000 0.000000 0.000000 0.000000 38.971143 0.000000 0.000000 19.485572 0.000000 0.000000 0.000000 0.000000 0.000000 -37.943530 0.000000 0.000000 -11.383059 0.000000 0.000000 0.000000 0.000000 0.000000 37.943530 0.000000 0.000000 11.383059 0.000000 0.000000 0.000000 0.000000 0.000000
-1.246486 102.713238 32.766317 0.000000 0.000000 0.000000 0.000000 0.000000 0.000000 0.000000 0.000000 0.000000 0.000000 0.000000 0.000000 0.000000 0.000000 0.000000 -37.212173 0.000000 0.000000 -18.606087 0.000000 0.000000 0.000000 0.000000 0.000000 37.212173 0.000000 0.000000 18.606087 0.000000 0.000000 0.000000 0.000000 0.000000 -33.456629 0.000000 0.000000 -10.036989 0.000000 0.000000 0.000000 0.000000 0.000000 33.456629 0.000000 0.000000 10.036989 0.000000 0.000000 0.000000 0.000000 0.000000
-0.971587 101.849911 33.554915 0.000000 0.000000 0.000000 0.000000 0.000000 0.000000 0.000000 0.000000 0.000000 0.000000 0.000000 0.000000 0.000000 0.000000 0.000000 -31.899405 0.000000 0.000000 -15.949703 0.000000 0.000000 0.000000 0.000000 0.000000 31.899405 0.000000 0.000000 15.949703 0.000000 0.000000 0.000000 0.000000 0.000000 -27.069685 0.000000 0.000000 -8.120906 0.000000 0.000000 0.000000 0.000000 0.000000 27.069685 0.000000 0.000000 8.120906 0.000000 0.000000 0.000000 0.000000 0.000000
-0.665823 101.133875 34.360442 0.000000 0.000000 0.000000 0.000000 0.000000 0.000000 0.000000 0.000000 0.000000 0.000000 0.000000 0.000000 0.000000 0.000000 0.000000 -23.349272 0.000000 0.000000 -11.674636 0.000000 0.000000 0.000000 0.000000 0.000000 23.349272 0.000000 0.000000 11.674636 0.000000 0.000000 0.000000 0.000000 0.000000 -19.051986 0.000000 0.000000 -5.715596 0.000000 0.000000 0.000000 0.000000 0.000000 19.051986 0.000000 0.000000 5.715596 0.000000 0.000000 0.000000 0.000000 0.000000
-0.338466 100.534740 35.177358 0.000000 0.000000 0.000000 0.000000 0.000000 0.000000 0.000000 0.000000 0.000000 0.000000 0.000000 0.000000 0.000000 0.000000 0.000000 -12.338400 0.000000 0.000000 -6.169200 0.000000 0.000000 0.000000 0.000000 0.000000 12.338400 0.000000 0.000000 6.169200 0.000000 0.000000 0.000000 0.000000 0.000000 -9.841058 0.000000 0.000000 -2.952317 0.000000 0.000000 0.000000 0.000000 0.000000 9.841058 0.000000 0.000000 2.952317 0.000000 0.000000 0.000000 0.000000 0.000000
