HIERARCHY
ROOT Hips
{
    OFFSET 0.0 0.0 0.0
    CHANNELS 6 Xposition Yposition Zposition Zrotation Xrotation Yrotation
    JOINT Spine
    {
        OFFSET 0.0 10.0 0.0
        CHANNELS 3 Zrotation Xrotation Yrotation
        JOINT Spine1
        {
            OFFSET 0.0 10.0 0.0
            CHANNELS 3 Zrotation Xrotation Yrotation
            JOINT Neck
            {
                OFFSET 0.0 10.0 0.0
                CHANNELS 3 Zrotation Xrotation Yrotation
                JOINT Head
                {
                    OFFSET 0.0 10.0 0.0
                    CHANNELS 3 Zrotation Xrotation Yrotation
                    End Site
                    {
                        OFFSET 0.0 10.0 0.0
                    }
                }
            }
            JOINT LeftArm
            {
                OFFSET -5.0 8.0 0.0
                CHANNELS 3 Zrotation Xrotation Yrotation
                JOINT LeftForeArm
                {
                    OFFSET -10.0 0.0 0.0
                    CHANNELS 3 Zrotation Xrotation Yrotation
                    JOINT LeftHand
                    {
                        OFFSET -10.0 0.0 0.0
                        CHANNELS 3 Zrotation Xrotation Yrotation
                        End Site
                        {
                            OFFSET -5.0 0.0 0.0
                        }
                    }
                }
            }
            JOINT RightArm
            {
                OFFSET 5.0 8.0 0.0
                CHANNELS 3 Zrotation Xrotation Yrotation
                JOINT RightForeArm
                {
                    OFFSET 10.0 0.0 0.0
                    CHANNELS 3 Zrotation Xrotation Yrotation
                    JOINT RightHand
                    {
                        OFFSET 10.0 0.0 0.0
                        CHANNELS 3 Zrotation Xrotation Yrotation
                        End Site
                        {
                            OFFSET 5.0 0.0 0.0
                        }
                    }
                }
            }
        }
    }
    JOINT LeftUpLeg
    {
        OFFSET -5.0 -5.0 0.0
        CHANNELS 3 Zrotation Xrotation Yrotation
        JOINT LeftLeg
        {
            OFFSET 0.0 -15.0 0.0
            CHANNELS 3 Zrotation Xrotation Yrotation
            JOINT LeftFoot
            {
                OFFSET 0.0 -15.0 0.0
                CHANNELS 3 Zrotation Xrotation Yrotation
                End Site
                {
                    OFFSET 0.0 -5.0 0.0
                }
            }
        }
    }
    JOINT RightUpLeg
    {
        OFFSET 5.0 -5.0 0.0
        CHANNELS 3 Zrotation Xrotation Yrotation
        JOINT RightLeg
        {
            OFFSET 0.0 -15.0 0.0
            CHANNELS 3 Zrotation Xrotation Yrotation
            JOINT RightFoot
            {
                OFFSET 0.0 -15.0 0.0
                CHANNELS 3 Zrotation Xrotation Yrotation
                End Site
                {
                    OFFSET 0.0 -5.0 0.0
                }
            }
        }
    }
}
MOTION
Frames: 120
Frame Time: 0.033333
0.000000 100.000000 0.000000 0.000000 0.000000 0.000000 0.000000 0.000000 0.000000 0.000000 0.000000 0.000000 0.000000 0.000000 0.000000 0.000000 0.000000 0.000000 0.000000 0.000000 0.000000 0.000000 0.000000 0.000000 0.000000 0.000000 0.000000 0.000000 0.000000 0.000000 0.000000 0.000000 0.000000 0.000000 0.000000 0.000000 0.000000 0.000000 0.000000 0.000000 0.000000 0.000000 0.000000 0.000000 0.000000 0.000000 0.000000 0.000000 0.000000 0.000000 0.000000 0.000000 0.000000 0.000000
0.156434 101.545085 1.000000 0.000000 0.000000 0.000000 0.000000 0.000000 0.000000 0.000000 0.000000 0.000000 0.000000 0.000000 0.000000 0.000000 0.000000 0.000000 -10.815595 0.000000 0.000000 -5.407797 0.000000 0.000000 0.000000 0.000000 0.000000 10.815595 0.000000 0.000000 5.407797 0.000000 0.000000 0.000000 0.000000 0.000000 13.905765 0.000000 0.000000 4.171729 0.000000 0.000000 0.000000 0.000000 0.000000 -13.905765 0.000000 0.000000 -4.171729 0.000000 0.000000 0.000000 0.000000 0.000000
0.309017 102.938926 2.000000 0.000000 0.000000 0.000000 0.000000 0.000000 0.000000 0.000000 0.000000 0.000000 0.000000 0.000000 0.000000 0.000000 0.000000 0.000000 -20.572484 0.000000 0.000000 -10.286242 0.000000 0.000000 0.000000 0.000000 0.000000 20.572484 0.000000 0.000000 10.286242 0.000000 0.000000 0.000000 0.000000 0.000000 26.450336 0.000000 0.000000 7.935101 0.000000 0.000000 0.000000 0.000000 0.000000 -26.450336 0.000000 0.000000 -7.935101 0.000000 0.000000 0.000000 0.000000 0.000000
0.453990 104.045085 3.000000 0.000000 0.000000 0.000000 0.000000 0.000000 0.000000 0.000000 0.000000 0.000000 0.000000 0.000000 0.000000 0.000000 0.000000 0.000000 -28.315595 0.000000 0.000000 -14.157797 0.000000 0.000000 0.000000 0.000000 0.000000 28.315595 0.000000 0.000000 14.157797 0.000000 0.000000 0.000000 0.000000 0.000000 36.405765 0.000000 0.000000 10.921729 0.000000 0.000000 0.000000 0.000000 0.000000 -36.405765 0.000000 0.000000 -10.921729 0.000000 0.000000 0.000000 0.000000 0.000000
0.587785 104.755283 4.000000 0.000000 0.000000 0.000000 0.000000 0.000000 0.000000 0.000000 0.000000 0.000000 0.000000 0.000000 0.000000 0.000000 0.000000 0.000000 -33.286978 0.000000 0.000000 -16.643489 0.000000 0.000000 0.000000 0.000000 0.000000 33.286978 0.000000 0.000000 16.643489 0.000000 0.000000 0.000000 0.000000 0.000000 42.797543 0.000000 0.000000 12.839263 0.000000 0.000000 0.000000 0.000000 0.000000 -42.797543 0.000000 0.000000 -12.839263 0.000000 0.000000 0.000000 0.000000 0.000000
0.707107 105.000000 5.000000 0.000000 0.000000 0.000000 0.000000 0.000000 0.000000 0.000000 0.000000 0.000000 0.000000 0.000000 0.000000 0.000000 0.000000 0.000000 -35.000000 0.000000 0.000000 -17.500000 0.000000 0.000000 0.000000 0.000000 0.000000 35.000000 0.000000 0.000000 17.500000 0.000000 0.000000 0.000000 0.000000 0.000000 45.000000 0.000000 0.000000 13.500000 0.000000 0.000000 0.000000 0.000000 0.000000 -45.000000 0.000000 0.000000 -13.500000 0.000000 0.000000 0.000000 0.000000 0.000000
0.809017 104.755283 6.000000 0.000000 0.000000 0.000000 0.000000 0.000000 0.000000 0.000000 0.000000 0.000000 0.000000 0.000000 0.000000 0.000000 0.000000 0.000000 -33.286978 0.000000 0.000000 -16.643489 0.000000 0.000000 0.000000 0.000000 0.000000 33.286978 0.000000 0.000000 16.643489 0.000000 0.000000 0.000000 0.000000 0.000000 42.797543 0.000000 0.000000 12.839263 0.000000 0.000000 0.000000 0.000000 0.000000 -42.797543 0.000000 0.000000 -12.839263 0.000000 0.000000 0.000000 0.000000 0.000000
0.891007 104.045085 7.000000 0.000000 0.000000 0.000000 0.000000 0.000000 0.000000 0.000000 0.000000 0.000000 0.000000 0.000000 0.000000 0.000000 0.000000 0.000000 -28.315595 0.000000 0.000000 -14.157797 0.000000 0.000000 0.000000 0.000000 0.000000 28.315595 0.000000 0.000000 14.157797 0.000000 0.000000 0.000000 0.000000 0.000000 36.405765 0.000000 0.000000 10.921729 0.000000 0.000000 0.000000 0.000000 0.000000 -36.405765 0.000000 0.000000 -10.921729 0.000000 0.000000 0.000000 0.000000 0.000000
0.951057 102.938926 8.000000 0.000000 0.000000 0.000000 0.000000 0.000000 0.000000 0.000000 0.000000 0.000000 0.000000 0.000000 0.000000 0.000000 0.000000 0.000000 -20.572484 0.000000 0.000000 -10.286242 0.000000 0.000000 0.000000 0.000000 0.000000 20.572484 0.000000 0.000000 10.286242 0.000000 0.000000 0.000000 0.000000 0.000000 26.450336 0.000000 0.000000 7.935101 0.000000 0.000000 0.000000 0.000000 0.000000 -26.450336 0.000000 0.000000 -7.935101 0.000000 0.000000 0.000000 0.000000 0.000000
0.987688 101.545085 9.000000 0.000000 0.000000 0.000000 0.000000 0.000000 0.000000 0.000000 0.000000 0.000000 0.000000 0.000000 0.000000 0.000000 0.000000 0.000000 -10.815595 0.000000 0.000000 -5.407797 0.000000 0.000000 0.000000 0.000000 0.000000 10.815595 0.000000 0.000000 5.407797 0.000000 0.000000 0.000000 0.000000 0.000000 13.905765 0.000000 0.000000 4.171729 0.000000 0.000000 0.000000 0.000000 0.000000 -13.905765 0.000000 0.000000 -4.171729 0.000000 0.000000 0.000000 0.000000 0.000000
1.000000 100.000000 10.000000 0.000000 0.000000 0.000000 0.000000 0.000000 0.000000 0.000000 0.000000 0.000000 0.000000 0.000000 0.000000 0.000000 0.000000 0.000000 -0.000000 0.000000 0.000000 -0.000000 0.000000 0.000000 0.000000 0.000000 0.000000 0.000000 0.000000 0.000000 0.000000 0.000000 0.000000 0.000000 0.000000 0.000000 0.000000 0.000000 0.000000 0.000000 0.000000 0.000000 0.000000 0.000000 0.000000 -0.000000 0.000000 0.000000 -0.000000 0.000000 0.000000 0.000000 0.000000 0.000000
0.987688 101.545085 11.000000 0.000000 0.000000 0.000000 0.000000 0.000000 0.000000 0.000000 0.000000 0.000000 0.000000 0.000000 0.000000 0.000000 0.000000 0.000000 10.815595 0.000000 0.000000 5.407797 0.000000 0.000000 0.000000 0.000000 0.000000 -10.815595 0.000000 0.000000 -5.407797 0.000000 0.000000 0.000000 0.000000 0.000000 -13.905765 0.000000 0.000000 -4.171729 0.000000 0.000000 0.000000 0.000000 0.000000 13.905765 0.000000 0.000000 4.171729 0.000000 0.000000 0.000000 0.000000 0.000000
0.951057 102.938926 12.000000 0.000000 0.000000 0.000000 0.000000 0.000000 0.000000 0.000000 0.000000 0.000000 0.000000 0.000000 0.000000 0.000000 0.000000 0.000000 20.572484 0.000000 0.000000 10.286242 0.000000 0.000000 0.000000 0.000000 0.000000 -20.572484 0.000000 0.000000 -10.286242 0.000000 0.000000 0.000000 0.000000 0.000000 -26.450336 0.000000 0.000000 -7.935101 0.000000 0.000000 0.000000 0.000000 0.000000 26.450336 0.000000 0.000000 7.935101 0.000000 0.000000 0.000000 0.000000 0.000000
0.891007 104.045085 13.000000 0.000000 0.000000 0.000000 0.000000 0.000000 0.000000 0.000000 0.000000 0.000000 0.000000 0.000000 0.000000 0.000000 0.000000 0.000000 28.315595 0.000000 0.000000 14.157797 0.000000 0.000000 0.000000 0.000000 0.000000 -28.315595 0.000000 0.000000 -14.157797 0.000000 0.000000 0.000000 0.000000 0.000000 -36.405765 0.000000 0.000000 -10.921729 0.000000 0.000000 0.000000 0.000000 0.000000 36.405765 0.000000 0.000000 10.921729 0.000000 0.000000 0.000000 0.000000 0.000000
0.809017 104.755283 14.000000 0.000000 0.000000 0.000000 0.000000 0.000000 0.000000 0.000000 0.000000 0.000000 0.000000 0.000000 0.000000 0.000000 0.000000 0.000000 33.286978 0.000000 0.000000 16.643489 0.000000 0.000000 0.000000 0.000000 0.000000 -33.286978 0.000000 0.000000 -16.643489 0.000000 0.000000 0.000000 0.000000 0.000000 -42.797543 0.000000 0.000000 -12.839263 0.000000 0.000000 0.000000 0.000000 0.000000 42.797543 0.000000 0.000000 12.839263 0.000000 0.000000 0.000000 0.000000 0.000000
0.707107 105.000000 15.000000 0.000000 0.000000 0.000000 0.000000 0.000000 0.000000 0.000000 0.000000 0.000000 0.000000 0.000000 0.000000 0.000000 0.000000 0.000000 35.000000 0.000000 0.000000 17.500000 0.000000 0.000000 0.000000 0.000000 0.000000 -35.000000 0.000000 0.000000 -17.500000 0.000000 0.000000 0.000000 0.000000 0.000000 -45.000000 0.000000 0.000000 -13.500000 0.000000 0.000000 0.000000 0.000000 0.000000 45.000000 0.000000 0.000000 13.500000 0.000000 0.000000 0.000000 0.000000 0.000000
0.587785 104.755283 16.000000 0.000000 0.000000 0.000000 0.000000 0.000000 0.000000 0.000000 0.000000 0.000000 0.000000 0.000000 0.000000 0.000000 0.000000 0.000000 33.286978 0.000000 0.000000 16.643489 0.000000 0.000000 0.000000 0.000000 0.000000 -33.286978 0.000000 0.000000 -16.643489 0.000000 0.000000 0.000000 0.000000 0.000000 -42.797543 0.000000 0.000000 -12.839263 0.000000 0.000000 0.000000 0.000000 0.000000 42.797543 0.000000 0.000000 12.839263 0.000000 0.000000 0.000000 0.000000 0.000000
0.453990 104.045085 17.000000 0.000000 0.000000 0.000000 0.000000 0.000000 0.000000 0.000000 0.000000 0.000000 0.000000 0.000000 0.000000 0.000000 0.000000 0.000000 28.315595 0.000000 0.000000 14.157797 0.000000 0.000000 0.000000 0.000000 0.000000 -28.315595 0.000000 0.000000 -14.157797 0.000000 0.000000 0.000000 0.000000 0.000000 -36.405765 0.000000 0.000000 -10.921729 0.000000 0.000000 0.000000 0.000000 0.000000 36.405765 0.000000 0.000000 10.921729 0.000000 0.000000 0.000000 0.000000 0.000000
0.309017 102.938926 18.000000 0.000000 0.000000 0.000000 0.000000 0.000000 0.000000 0.000000 0.000000 0.000000 0.000000 0.000000 0.000000 0.000000 0.000000 0.000000 20.572484 0.000000 0.000000 10.286242 0.000000 0.000000 0.000000 0.000000 0.000000 -20.572484 0.000000 0.000000 -10.286242 0.000000 0.000000 0.000000 0.000000 0.000000 -26.450336 0.000000 0.000000 -7.935101 0.000000 0.000000 0.000000 0.000000 0.000000 26.450336 0.000000 0.000000 7.935101 0.000000 0.000000 0.000000 0.000000 0.000000
0.156434 101.545085 19.000000 0.000000 0.000000 0.000000 0.000000 0.000000 0.000000 0.000000 0.000000 0.000000 0.000000 0.000000 0.000000 0.000000 0.000000 0.000000 10.815595 0.000000 0.000000 5.407797 0.000000 0.000000 0.000000 0.000000 0.000000 -10.815595 0.000000 0.000000 -5.407797 0.000000 0.000000 0.000000 0.000000 0.000000 -13.905765 0.000000 0.000000 -4.171729 0.000000 0.000000 0.000000 0.000000 0.000000 13.905765 0.000000 0.000000 4.171729 0.000000 0.000000 0.000000 0.000000 0.000000
0.000000 100.000000 20.000000 0.000000 0.000000 0.000000 0.000000 0.000000 0.000000 0.000000 0.000000 0.000000 0.000000 0.000000 0.000000 0.000000 0.000000 0.000000 0.000000 0.000000 0.000000 0.000000 0.000000 0.000000 0.000000 0.000000 0.000000 -0.000000 0.000000 0.000000 -0.000000 0.000000 0.000000 0.000000 0.000000 0.000000 -0.000000 0.000000 0.000000 -0.000000 0.000000 0.000000 0.000000 0.000000 0.000000 0.000000 0.000000 0.000000 0.000000 0.000000 0.000000 0.000000 0.000000 0.000000
-0.156434 101.545085 21.000000 0.000000 0.000000 0.000000 0.000000 0.000000 0.000000 0.000000 0.000000 0.000000 0.000000 0.000000 0.000000 0.000000 0.000000 0.000000 -10.815595 0.000000 0.000000 -5.407797 0.000000 0.000000 0.000000 0.000000 0.000000 10.815595 0.000000 0.000000 5.407797 0.000000 0.000000 0.000000 0.000000 0.000000 13.905765 0.000000 0.000000 4.171729 0.000000 0.000000 0.000000 0.000000 0.000000 -13.905765 0.000000 0.000000 -4.171729 0.000000 0.000000 0.000000 0.000000 0.000000
-0.309017 102.938926 22.000000 0.000000 0.000000 0.000000 0.000000 0.000000 0.000000 0.000000 0.000000 0.000000 0.000000 0.000000 0.000000 0.000000 0.000000 0.000000 -20.572484 0.000000 0.000000 -10.286242 0.000000 0.000000 0.000000 0.000000 0.000000 20.572484 0.000000 0.000000 10.286242 0.000000 0.000000 0.000000 0.000000 0.000000 26.450336 0.000000 0.000000 7.935101 0.000000 0.000000 0.000000 0.000000 0.000000 -26.450336 0.000000 0.000000 -7.935101 0.000000 0.000000 0.000000 0.000000 0.000000
-0.453990 104.045085 23.000000 0.000000 0.000000 0.000000 0.000000 0.000000 0.000000 0.000000 0.000000 0.000000 0.000000 0.000000 0.000000 0.000000 0.000000 0.000000 -28.315595 0.000000 0.000000 -14.157797 0.000000 0.000000 0.000000 0.000000 0.000000 28.315595 0.000000 0.000000 14.157797 0.000000 0.000000 0.000000 0.000000 0.000000 36.405765 0.000000 0.000000 10.921729 0.000000 0.000000 0.000000 0.000000 0.000000 -36.405765 0.000000 0.000000 -10.921729 0.000000 0.000000 0.000000 0.000000 0.000000
-0.587785 104.755283 24.000000 0.000000 0.000000 0.000000 0.000000 0.000000 0.000000 0.000000 0.000000 0.000000 0.000000 0.000000 0.000000 0.000000 0.000000 0.000000 -33.286978 0.000000 0.000000 -16.643489 0.000000 0.000000 0.000000 0.000000 0.000000 33.286978 0.000000 0.000000 16.643489 0.000000 0.000000 0.000000 0.000000 0.000000 42.797543 0.000000 0.000000 12.839263 0.000000 0.000000 0.000000 0.000000 0.000000 -42.797543 0.000000 0.000000 -12.839263 0.000000 0.000000 0.000000 0.000000 0.000000
-0.707107 105.000000 25.000000 0.000000 0.000000 0.000000 0.000000 0.000000 0.000000 0.000000 0.000000 0.000000 0.000000 0.000000 0.000000 0.000000 0.000000 0.000000 -35.000000 0.000000 0.000000 -17.500000 0.000000 0.000000 0.000000 0.000000 0.000000 35.000000 0.000000 0.000000 17.500000 0.000000 0.000000 0.000000 0.000000 0.000000 45.000000 0.000000 0.000000 13.500000 0.000000 0.000000 0.000000 0.000000 0.000000 -45.000000 0.000000 0.000000 -13.500000 0.000000 0.000000 0.000000 0.000000 0.000000
-0.809017 104.755283 26.000000 0.000000 0.000000 0.000000 0.000000 0.000000 0.000000 0.000000 0.000000 0.000000 0.000000 0.000000 0.000000 0.000000 0.000000 0.000000 -33.286978 0.000000 0.000000 -16.643489 0.000000 0.000000 0.000000 0.000000 0.000000 33.286978 0.000000 0.000000 16.643489 0.000000 0.000000 0.000000 0.000000 0.000000 42.797543 0.000000 0.000000 12.839263 0.000000 0.000000 0.000000 0.000000 0.000000 -42.797543 0.000000 0.000000 -12.839263 0.000000 0.000000 0.000000 0.000000 0.000000
-0.891007 104.045085 27.000000 0.000000 0.000000 0.000000 0.000000 0.000000 0.000000 0.000000 0.000000 0.000000 0.000000 0.000000 0.000000 0.000000 0.000000 0.000000 -28.315595 0.000000 0.000000 -14.157797 0.000000 0.000000 0.000000 0.000000 0.000000 28.315595 0.000000 0.000000 14.157797 0.000000 0.000000 0.000000 0.000000 0.000000 36.405765 0.000000 0.000000 10.921729 0.000000 0.000000 0.000000 0.000000 0.000000 -36.405765 0.000000 0.000000 -10.921729 0.000000 0.000000 0.000000 0.000000 0.000000
-0.951057 102.938926 28.000000 0.000000 0.000000 0.000000 0.000000 0.000000 0.000000 0.000000 0.000000 0.000000 0.000000 0.000000 0.000000 0.000000 0.000000 0.000000 -20.572484 0.000000 0.000000 -10.286242 0.000000 0.000000 0.000000 0.000000 0.000000 20.572484 0.000000 0.000000 10.286242 0.000000 0.000000 0.000000 0.000000 0.000000 26.450336 0.000000 0.000000 7.935101 0.000000 0.000000 0.000000 0.000000 0.000000 -26.450336 0.000000 0.000000 -7.935101 0.000000 0.000000 0.000000 0.000000 0.000000
-0.987688 101.545085 29.000000 0.000000 0.000000 0.000000 0.000000 0.000000 0.000000 0.000000 0.000000 0.000000 0.000000 0.000000 0.000000 0.000000 0.000000 0.000000 -10.815595 0.000000 0.000000 -5.407797 0.000000 0.000000 0.000000 0.000000 0.000000 10.815595 0.000000 0.000000 5.407797 0.000000 0.000000 0.000000 0.000000 0.000000 13.905765 0.000000 0.000000 4.171729 0.000000 0.000000 0.000000 0.000000 0.000000 -13.905765 0.000000 0.000000 -4.171729 0.000000 0.000000 0.000000 0.000000 0.000000
-1.000000 100.000000 30.000000 0.000000 0.000000 0.000000 0.000000 0.000000 0.000000 0.000000 0.000000 0.000000 0.000000 0.000000 0.000000 0.000000 0.000000 0.000000 -0.000000 0.000000 0.000000 -0.000000 0.000000 0.000000 0.000000 0.000000 0.000000 0.000000 0.000000 0.000000 0.000000 0.000000 0.000000 0.000000 0.000000 0.000000 0.000000 0.000000 0.000000 0.000000 0.000000 0.000000 0.000000 0.000000 0.000000 -0.000000 0.000000 0.000000 -0.000000 0.000000 0.000000 0.000000 0.000000 0.000000
-0.987688 101.545085 31.000000 0.000000 0.000000 0.000000 0.000000 0.000000 0.000000 0.000000 0.000000 0.000000 0.000000 0.000000 0.000000 0.000000 0.000000 0.000000 10.815595 0.000000 0.000000 5.407797 0.000000 0.000000 0.000000 0.000000 0.000000 -10.815595 0.000000 0.000000 -5.407797 0.000000 0.000000 0.000000 0.000000 0.000000 -13.905765 0.000000 0.000000 -4.171729 0.000000 0.000000 0.000000 0.000000 0.000000 13.905765 0.000000 0.000000 4.171729 0.000000 0.000000 0.000000 0.000000 0.000000
-0.951057 102.938926 32.000000 0.000000 0.000000 0.000000 0.000000 0.000000 0.000000 0.000000 0.000000 0.000000 0.000000 0.000000 0.000000 0.000000 0.000000 0.000000 20.572484 0.000000 0.000000 10.286242 0.000000 0.000000 0.000000 0.000000 0.000000 -20.572484 0.000000 0.000000 -10.286242 0.000000 0.000000 0.000000 0.000000 0.000000 -26.450336 0.000000 0.000000 -7.935101 0.000000 0.000000 0.000000 0.000000 0.000000 26.450336 0.000000 0.000000 7.935101 0.000000 0.000000 0.000000 0.000000 0.000000
-0.891007 104.045085 33.000000 0.000000 0.000000 0.000000 0.000000 0.000000 0.000000 0.000000 0.000000 0.000000 0.000000 0.000000 0.000000 0.000000 0.000000 0.000000 28.315595 0.000000 0.000000 14.157797 0.000000 0.000000 0.000000 0.000000 0.000000 -28.315595 0.000000 0.000000 -14.157797 0.000000 0.000000 0.000000 0.000000 0.000000 -36.405765 0.000000 0.000000 -10.921729 0.000000 0.000000 0.000000 0.000000 0.000000 36.405765 0.000000 0.000000 10.921729 0.000000 0.000000 0.000000 0.000000 0.000000
-0.809017 104.755283 34.000000 0.000000 0.000000 0.000000 0.000000 0.000000 0.000000 0.000000 0.000000 0.000000 0.000000 0.000000 0.000000 0.000000 0.000000 0.000000 33.286978 0.000000 0.000000 16.643489 0.000000 0.000000 0.000000 0.000000 0.000000 -33.286978 0.000000 0.000000 -16.643489 0.000000 0.000000 0.000000 0.000000 0.000000 -42.797543 0.000000 0.000000 -12.839263 0.000000 0.000000 0.000000 0.000000 0.000000 42.797543 0.000000 0.000000 12.839263 0.000000 0.000000 0.000000 0.000000 0.000000
-0.707107 105.000000 35.000000 0.000000 0.000000 0.000000 0.000000 0.000000 0.000000 0.000000 0.000000 0.000000 0.000000 0.000000 0.000000 0.000000 0.000000 0.000000 35.000000 0.000000 0.000000 17.500000 0.000000 0.000000 0.000000 0.000000 0.000000 -35.000000 0.000000 0.000000 -17.500000 0.000000 0.000000 0.000000 0.000000 0.000000 -45.000000 0.000000 0.000000 -13.500000 0.000000 0.000000 0.000000 0.000000 0.000000 45.000000 0.000000 0.000000 13.500000 0.000000 0.000000 0.000000 0.000000 0.000000
-0.587785 104.755283 36.000000 0.000000 0.000000 0.000000 0.000000 0.000000 0.000000 0.000000 0.000000 0.000000 0.000000 0.000000 0.000000 0.000000 0.000000 0.000000 33.286978 0.000000 0.000000 16.643489 0.000000 0.000000 0.000000 0.000000 0.000000 -33.286978 0.000000 0.000000 -16.643489 0.000000 0.000000 0.000000 0.000000 0.000000 -42.797543 0.000000 0.000000 -12.839263 0.000000 0.000000 0.000000 0.000000 0.000000 42.797543 0.000000 0.000000 12.839263 0.000000 0.000000 0.000000 0.000000 0.000000
-0.453990 104.045085 37.000000 0.000000 0.000000 0.000000 0.000000 0.000000 0.000000 0.000000 0.000000 0.000000 0.000000 0.000000 0.000000 0.000000 0.000000 0.000000 28.315595 0.000000 0.000000 14.157797 0.000000 0.000000 0.000000 0.000000 0.000000 -28.315595 0.000000 0.000000 -14.157797 0.000000 0.000000 0.000000 0.000000 0.000000 -36.405765 0.000000 0.000000 -10.921729 0.000000 0.000000 0.000000 0.000000 0.000000 36.405765 0.000000 0.000000 10.921729 0.000000 0.000000 0.000000 0.000000 0.000000
-0.309017 102.938926 38.000000 0.000000 0.000000 0.000000 0.000000 0.000000 0.000000 0.000000 0.000000 0.000000 0.000000 0.000000 0.000000 0.000000 0.000000 0.000000 20.572484 0.000000 0.000000 10.286242 0.000000 0.000000 0.000000 0.000000 0.000000 -20.572484 0.000000 0.000000 -10.286242 0.000000 0.000000 0.000000 0.000000 0.000000 -26.450336 0.000000 0.000000 -7.935101 0.000000 0.000000 0.000000 0.000000 0.000000 26.450336 0.000000 0.000000 7.935101 0.000000 0.000000 0.000000 0.000000 0.000000
-0.156434 101.545085 39.000000 0.000000 0.000000 0.000000 0.000000 0.000000 0.000000 0.000000 0.000000 0.000000 0.000000 0.000000 0.000000 0.000000 0.000000 0.000000 10.815595 0.000000 0.000000 5.407797 0.000000 0.000000 0.000000 0.000000 0.000000 -10.815595 0.000000 0.000000 -5.407797 0.000000 0.000000 0.000000 0.000000 0.000000 -13.905765 0.000000 0.000000 -4.171729 0.000000 0.000000 0.000000 0.000000 0.000000 13.905765 0.000000 0.000000 4.171729 0.000000 0.000000 0.000000 0.000000 0.000000
-0.000000 100.000000 40.000000 0.000000 0.000000 0.000000 0.000000 0.000000 0.000000 0.000000 0.000000 0.000000 0.000000 0.000000 0.000000 0.000000 0.000000 0.000000 0.000000 0.000000 0.000000 0.000000 0.000000 0.000000 0.000000 0.000000 0.000000 -0.000000 0.000000 0.000000 -0.000000 0.000000 0.000000 0.000000 0.000000 0.000000 -0.000000 0.000000 0.000000 -0.000000 0.000000 0.000000 0.000000 0.000000 0.000000 0.000000 0.000000 0.000000 0.000000 0.000000 0.000000 0.000000 0.000000 0.000000
0.156434 101.545085 41.000000 0.000000 0.000000 0.000000 0.000000 0.000000 0.000000 0.000000 0.000000 0.000000 0.000000 0.000000 0.000000 0.000000 0.000000 0.000000 -10.815595 0.000000 0.000000 -5.407797 0.000000 0.000000 0.000000 0.000000 0.000000 10.815595 0.000000 0.000000 5.407797 0.000000 0.000000 0.000000 0.000000 0.000000 13.905765 0.000000 0.000000 4.171729 0.000000 0.000000 0.000000 0.000000 0.000000 -13.905765 0.000000 0.000000 -4.171729 0.000000 0.000000 0.000000 0.000000 0.000000
0.309017 102.938926 42.000000 0.000000 0.000000 0.000000 0.000000 0.000000 0.000000 0.000000 0.000000 0.000000 0.000000 0.000000 0.000000 0.000000 0.000000 0.000000 -20.572484 0.000000 0.000000 -10.286242 0.000000 0.000000 0.000000 0.000000 0.000000 20.572484 0.000000 0.000000 10.286242 0.000000 0.000000 0.000000 0.000000 0.000000 26.450336 0.000000 0.000000 7.935101 0.000000 0.000000 0.000000 0.000000 0.000000 -26.450336 0.000000 0.000000 -7.935101 0.000000 0.000000 0.000000 0.000000 0.000000
0.453990 104.045085 43.000000 0.000000 0.000000 0.000000 0.000000 0.000000 0.000000 0.000000 0.000000 0.000000 0.000000 0.000000 0.000000 0.000000 0.000000 0.000000 -28.315595 0.000000 0.000000 -14.157797 0.000000 0.000000 0.000000 0.000000 0.000000 28.315595 0.000000 0.000000 14.157797 0.000000 0.000000 0.000000 0.000000 0.000000 36.405765 0.000000 0.000000 10.921729 0.000000 0.000000 0.000000 0.000000 0.000000 -36.405765 0.000000 0.000000 -10.921729 0.000000 0.000000 0.000000 0.000000 0.000000
0.587785 104.755283 44.000000 0.000000 0.000000 0.000000 0.000000 0.000000 0.000000 0.000000 0.000000 0.000000 0.000000 0.000000 0.000000 0.000000 0.000000 0.000000 -33.286978 0.000000 0.000000 -16.643489 0.000000 0.000000 0.000000 0.000000 0.000000 33.286978 0.000000 0.000000 16.643489 0.000000 0.000000 0.000000 0.000000 0.000000 42.797543 0.000000 0.000000 12.839263 0.000000 0.000000 0.000000 0.000000 0.000000 -42.797543 0.000000 0.000000 -12.839263 0.000000 0.000000 0.000000 0.000000 0.000000
0.707107 105.000000 45.000000 0.000000 0.000000 0.000000 0.000000 0.000000 0.000000 0.000000 0.000000 0.000000 0.000000 0.000000 0.000000 0.000000 0.000000 0.000000 -35.000000 0.000000 0.000000 -17.500000 0.000000 0.000000 0.000000 0.000000 0.000000 35.000000 0.000000 0.000000 17.500000 0.000000 0.000000 0.000000 0.000000 0.000000 45.000000 0.000000 0.000000 13.500000 0.000000 0.000000 0.000000 0.000000 0.000000 -45.000000 0.000000 0.000000 -13.500000 0.000000 0.000000 0.000000 0.000000 0.000000
0.809017 104.755283 46.000000 0.000000 0.000000 0.000000 0.000000 0.000000 0.000000 0.000000 0.000000 0.000000 0.000000 0.000000 0.000000 0.000000 0.000000 0.000000 -33.286978 0.000000 0.000000 -16.643489 0.000000 0.000000 0.000000 0.000000 0.000000 33.286978 0.000000 0.000000 16.643489 0.000000 0.000000 0.000000 0.000000 0.000000 42.797543 0.000000 0.000000 12.839263 0.000000 0.000000 0.000000 0.000000 0.000000 -42.797543 0.000000 0.000000 -12.839263 0.000000 0.000000 0.000000 0.000000 0.000000
0.891007 104.045085 47.000000 0.000000 0.000000 0.000000 0.000000 0.000000 0.000000 0.000000 0.000000 0.000000 0.000000 0.000000 0.000000 0.000000 0.000000 0.000000 -28.315595 0.000000 0.000000 -14.157797 0.000000 0.000000 0.000000 0.000000 0.000000 28.315595 0.000000 0.000000 14.157797 0.000000 0.000000 0.000000 0.000000 0.000000 36.405765 0.000000 0.000000 10.921729 0.000000 0.000000 0.000000 0.000000 0.000000 -36.405765 0.000000 0.000000 -10.921729 0.000000 0.000000 0.000000 0.000000 0.000000
0.951057 102.938926 48.000000 0.000000 0.000000 0.000000 0.000000 0.000000 0.000000 0.000000 0.000000 0.000000 0.000000 0.000000 0.000000 0.000000 0.000000 0.000000 -20.572484 0.000000 0.000000 -10.286242 0.000000 0.000000 0.000000 0.000000 0.000000 20.572484 0.000000 0.000000 10.286242 0.000000 0.000000 0.000000 0.000000 0.000000 26.450336 0.000000 0.000000 7.935101 0.000000 0.000000 0.000000 0.000000 0.000000 -26.450336 0.000000 0.000000 -7.935101 0.000000 0.000000 0.000000 0.000000 0.000000
0.987688 101.545085 49.000000 0.000000 0.000000 0.000000 0.000000 0.000000 0.000000 0.000000 0.000000 0.000000 0.000000 0.000000 0.000000 0.000000 0.000000 0.000000 -10.815595 0.000000 0.000000 -5.407797 0.000000 0.000000 0.000000 0.000000 0.000000 10.815595 0.000000 0.000000 5.407797 0.000000 0.000000 0.000000 0.000000 0.000000 13.905765 0.000000 0.000000 4.171729 0.000000 0.000000 0.000000 0.000000 0.000000 -13.905765 0.000000 0.000000 -4.171729 0.000000 0.000000 0.000000 0.000000 0.000000
1.000000 100.000000 50.000000 0.000000 0.000000 0.000000 0.000000 0.000000 0.000000 0.000000 0.000000 0.000000 0.000000 0.000000 0.000000 0.000000 0.000000 0.000000 -0.000000 0.000000 0.000000 -0.000000 0.000000 0.000000 0.000000 0.000000 0.000000 0.000000 0.000000 0.000000 0.000000 0.000000 0.000000 0.000000 0.000000 0.000000 0.000000 0.000000 0.000000 0.000000 0.000000 0.000000 0.000000 0.000000 0.000000 -0.000000 0.000000 0.000000 -0.000000 0.000000 0.000000 0.000000 0.000000 0.000000
0.987688 101.545085 51.000000 0.000000 0.000000 0.000000 0.000000 0.000000 0.000000 0.000000 0.000000 0.000000 0.000000 0.000000 0.000000 0.000000 0.000000 0.000000 10.815595 0.000000 0.000000 5.407797 0.000000 0.000000 0.000000 0.000000 0.000000 -10.815595 0.000000 0.000000 -5.407797 0.000000 0.000000 0.000000 0.000000 0.000000 -13.905765 0.000000 0.000000 -4.171729 0.000000 0.000000 0.000000 0.000000 0.000000 13.905765 0.000000 0.000000 4.171729 0.000000 0.000000 0.000000 0.000000 0.000000
0.951057 102.938926 52.000000 0.000000 0.000000 0.000000 0.000000 0.000000 0.000000 0.000000 0.000000 0.000000 0.000000 0.000000 0.000000 0.000000 0.000000 0.000000 20.572484 0.000000 0.000000 10.286242 0.000000 0.000000 0.000000 0.000000 0.000000 -20.572484 0.000000 0.000000 -10.286242 0.000000 0.000000 0.000000 0.000000 0.000000 -26.450336 0.000000 0.000000 -7.935101 0.000000 0.000000 0.000000 0.000000 0.000000 26.450336 0.000000 0.000000 7.935101 0.000000 0.000000 0.000000 0.000000 0.000000
0.891007 104.045085 53.000000 0.000000 0.000000 0.000000 0.000000 0.000000 0.000000 0.000000 0.000000 0.000000 0.000000 0.000000 0.000000 0.000000 0.000000 0.000000 28.315595 0.000000 0.000000 14.157797 0.000000 0.000000 0.000000 0.000000 0.000000 -28.315595 0.000000 0.000000 -14.157797 0.000000 0.000000 0.000000 0.000000 0.000000 -36.405765 0.000000 0.000000 -10.921729 0.000000 0.000000 0.000000 0.000000 0.000000 36.405765 0.000000 0.000000 10.921729 0.000000 0.000000 0.000000 0.000000 0.000000
0.809017 104.755283 54.000000 0.000000 0.000000 0.000000 0.000000 0.000000 0.000000 0.000000 0.000000 0.000000 0.000000 0.000000 0.000000 0.000000 0.000000 0.000000 33.286978 0.000000 0.000000 16.643489 0.000000 0.000000 0.000000 0.000000 0.000000 -33.286978 0.000000 0.000000 -16.643489 0.000000 0.000000 0.000000 0.000000 0.000000 -42.797543 0.000000 0.000000 -12.839263 0.000000 0.000000 0.000000 0.000000 0.000000 42.797543 0.000000 0.000000 12.839263 0.000000 0.000000 0.000000 0.000000 0.000000
0.707107 105.000000 55.000000 0.000000 0.000000 0.000000 0.000000 0.000000 0.000000 0.000000 0.000000 0.000000 0.000000 0.000000 0.000000 0.000000 0.000000 0.000000 35.000000 0.000000 0.000000 17.500000 0.000000 0.000000 0.000000 0.000000 0.000000 -35.000000 0.000000 0.000000 -17.500000 0.000000 0.000000 0.000000 0.000000 0.000000 -45.000000 0.000000 0.000000 -13.500000 0.000000 0.000000 0.000000 0.000000 0.000000 45.000000 0.000000 0.000000 13.500000 0.000000 0.000000 0.000000 0.000000 0.000000
0.587785 104.755283 56.000000 0.000000 0.000000 0.000000 0.000000 0.000000 0.000000 0.000000 0.000000 0.000000 0.000000 0.000000 0.000000 0.000000 0.000000 0.000000 33.286978 0.000000 0.000000 16.643489 0.000000 0.000000 0.000000 0.000000 0.000000 -33.286978 0.000000 0.000000 -16.643489 0.000000 0.000000 0.000000 0.000000 0.000000 -42.797543 0.000000 0.000000 -12.839263 0.000000 0.000000 0.000000 0.000000 0.000000 42.797543 0.000000 0.000000 12.839263 0.000000 0.000000 0.000000 0.000000 0.000000
0.453990 104.045085 57.000000 0.000000 0.000000 0.000000 0.000000 0.000000 0.000000 0.000000 0.000000 0.000000 0.000000 0.000000 0.000000 0.000000 0.000000 0.000000 28.315595 0.000000 0.000000 14.157797 0.000000 0.000000 0.000000 0.000000 0.000000 -28.315595 0.000000 0.000000 -14.157797 0.000000 0.000000 0.000000 0.000000 0.000000 -36.405765 0.000000 0.000000 -10.921729 0.000000 0.000000 0.000000 0.000000 0.000000 36.405765 0.000000 0.000000 10.921729 0.000000 0.000000 0.000000 0.000000 0.000000
0.309017 102.938926 58.000000 0.000000 0.000000 0.000000 0.000000 0.000000 0.000000 0.000000 0.000000 0.000000 0.000000 0.000000 0.000000 0.000000 0.000000 0.000000 20.572484 0.000000 0.000000 10.286242 0.000000 0.000000 0.000000 0.000000 0.000000 -20.572484 0.000000 0.000000 -10.286242 0.000000 0.000000 0.000000 0.000000 0.000000 -26.450336 0.000000 0.000000 -7.935101 0.000000 0.000000 0.000000 0.000000 0.000000 26.450336 0.000000 0.000000 7.935101 0.000000 0.000000 0.000000 0.000000 0.000000
0.156434 101.545085 59.000000 0.000000 0.000000 0.000000 0.000000 0.000000 0.000000 0.000000 0.000000 0.000000 0.000000 0.000000 0.000000 0.000000 0.000000 0.000000 10.815595 0.000000 0.000000 5.407797 0.000000 0.000000 0.000000 0.000000 0.000000 -10.815595 0.000000 0.000000 -5.407797 0.000000 0.000000 0.000000 0.000000 0.000000 -13.905765 0.000000 0.000000 -4.171729 0.000000 0.000000 0.000000 0.000000 0.000000 13.905765 0.000000 0.000000 4.171729 0.000000 0.000000 0.000000 0.000000 0.000000
0.000000 100.000000 60.000000 0.000000 0.000000 0.000000 0.000000 0.000000 0.000000 0.000000 0.000000 0.000000 0.000000 0.000000 0.000000 0.000000 0.000000 0.000000 0.000000 0.000000 0.000000 0.000000 0.000000 0.000000 0.000000 0.000000 0.000000 -0.000000 0.000000 0.000000 -0.000000 0.000000 0.000000 0.000000 0.000000 0.000000 -0.000000 0.000000 0.000000 -0.000000 0.000000 0.000000 0.000000 0.000000 0.000000 0.000000 0.000000 0.000000 0.000000 0.000000 0.000000 0.000000 0.000000 0.000000
-0.156434 101.545085 61.000000 0.000000 0.000000 0.000000 0.000000 0.000000 0.000000 0.000000 0.000000 0.000000 0.000000 0.000000 0.000000 0.000000 0.000000 0.000000 -10.815595 0.000000 0.000000 -5.407797 0.000000 0.000000 0.000000 0.000000 0.000000 10.815595 0.000000 0.000000 5.407797 0.000000 0.000000 0.000000 0.000000 0.000000 13.905765 0.000000 0.000000 4.171729 0.000000 0.000000 0.000000 0.000000 0.000000 -13.905765 0.000000 0.000000 -4.171729 0.000000 0.000000 0.000000 0.000000 0.000000
-0.309017 102.938926 62.000000 0.000000 0.000000 0.000000 0.000000 0.000000 0.000000 0.000000 0.000000 0.000000 0.000000 0.000000 0.000000 0.000000 0.000000 0.000000 -20.572484 0.000000 0.000000 -10.286242 0.000000 0.000000 0.000000 0.000000 0.000000 20.572484 0.000000 0.000000 10.286242 0.000000 0.000000 0.000000 0.000000 0.000000 26.450336 0.000000 0.000000 7.935101 0.000000 0.000000 0.000000 0.000000 0.000000 -26.450336 0.000000 0.000000 -7.935101 0.000000 0.000000 0.000000 0.000000 0.000000
-0.453990 104.045085 63.000000 0.000000 0.000000 0.000000 0.000000 0.000000 0.000000 0.000000 0.000000 0.000000 0.000000 0.000000 0.000000 0.000000 0.000000 0.000000 -28.315595 0.000000 0.000000 -14.157797 0.000000 0.000000 0.000000 0.000000 0.000000 28.315595 0.000000 0.000000 14.157797 0.000000 0.000000 0.000000 0.000000 0.000000 36.405765 0.000000 0.000000 10.921729 0.000000 0.000000 0.000000 0.000000 0.000000 -36.405765 0.000000 0.000000 -10.921729 0.000000 0.000000 0.000000 0.000000 0.000000
-0.587785 104.755283 64.000000 0.000000 0.000000 0.000000 0.000000 0.000000 0.000000 0.000000 0.000000 0.000000 0.000000 0.000000 0.000000 0.000000 0.000000 0.000000 -33.286978 0.000000 0.000000 -16.643489 0.000000 0.000000 0.000000 0.000000 0.000000 33.286978 0.000000 0.000000 16.643489 0.000000 0.000000 0.000000 0.000000 0.000000 42.797543 0.000000 0.000000 12.839263 0.000000 0.000000 0.000000 0.000000 0.000000 -42.797543 0.000000 0.000000 -12.839263 0.000000 0.000000 0.000000 0.000000 0.000000
-0.707107 105.000000 65.000000 0.000000 0.000000 0.000000 0.000000 0.000000 0.000000 0.000000 0.000000 0.000000 0.000000 0.000000 0.000000 0.000000 0.000000 0.000000 -35.000000 0.000000 0.000000 -17.500000 0.000000 0.000000 0.000000 0.000000 0.000000 35.000000 0.000000 0.000000 17.500000 0.000000 0.000000 0.000000 0.000000 0.000000 45.000000 0.000000 0.000000 13.500000 0.000000 0.000000 0.000000 0.000000 0.000000 -45.000000 0.000000 0.000000 -13.500000 0.000000 0.000000 0.000000 0.000000 0.000000
-0.809017 104.755283 66.000000 0.000000 0.000000 0.000000 0.000000 0.000000 0.000000 0.000000 0.000000 0.000000 0.000000 0.000000 0.000000 0.000000 0.000000 0.000000 -33.286978 0.000000 0.000000 -16.643489 0.000000 0.000000 0.000000 0.000000 0.000000 33.286978 0.000000 0.000000 16.643489 0.000000 0.000000 0.000000 0.000000 0.000000 42.797543 0.000000 0.000000 12.839263 0.000000 0.000000 0.000000 0.000000 0.000000 -42.797543 0.000000 0.000000 -12.839263 0.000000 0.000000 0.000000 0.000000 0.000000
-0.891007 104.045085 67.000000 0.000000 0.000000 0.000000 0.000000 0.000000 0.000000 0.000000 0.000000 0.000000 0.000000 0.000000 0.000000 0.000000 0.000000 0.000000 -28.315595 0.000000 0.000000 -14.157797 0.000000 0.000000 0.000000 0.000000 0.000000 28.315595 0.000000 0.000000 14.157797 0.000000 0.000000 0.000000 0.000000 0.000000 36.405765 0.000000 0.000000 10.921729 0.000000 0.000000 0.000000 0.000000 0.000000 -36.405765 0.000000 0.000000 -10.921729 0.000000 0.000000 0.000000 0.000000 0.000000
-0.951057 102.938926 68.000000 0.000000 0.000000 0.000000 0.000000 0.000000 0.000000 0.000000 0.000000 0.000000 0.000000 0.000000 0.000000 0.000000 0.000000 0.000000 -20.572484 0.000000 0.000000 -10.286242 0.000000 0.000000 0.000000 0.000000 0.000000 20.572484 0.000000 0.000000 10.286242 0.000000 0.000000 0.000000 0.000000 0.000000 26.450336 0.000000 0.000000 7.935101 0.000000 0.000000 0.000000 0.000000 0.000000 -26.450336 0.000000 0.000000 -7.935101 0.000000 0.000000 0.000000 0.000000 0.000000
-0.987688 101.545085 69.000000 0.000000 0.000000 0.000000 0.000000 0.000000 0.000000 0.000000 0.000000 0.000000 0.000000 0.000000 0.000000 0.000000 0.000000 0.000000 -10.815595 0.000000 0.000000 -5.407797 0.000000 0.000000 0.000000 0.000000 0.000000 10.815595 0.000000 0.000000 5.407797 0.000000 0.000000 0.000000 0.000000 0.000000 13.905765 0.000000 0.000000 4.171729 0.000000 0.000000 0.000000 0.000000 0.000000 -13.905765 0.000000 0.000000 -4.171729 0.000000 0.000000 0.000000 0.000000 0.000000
-1.000000 100.000000 70.000000 0.000000 0.000000 0.000000 0.000000 0.000000 0.000000 0.000000 0.000000 0.000000 0.000000 0.000000 0.000000 0.000000 0.000000 0.000000 0.000000 0.000000 0.000000 0.000000 0.000000 0.000000 0.000000 0.000000 0.000000 -0.000000 0.000000 0.000000 -0.000000 0.000000 0.000000 0.000000 0.000000 0.000000 -0.000000 0.000000 0.000000 -0.000000 0.000000 0.000000 0.000000 0.000000 0.000000 0.000000 0.000000 0.000000 0.000000 0.000000 0.000000 0.000000 0.000000 0.000000
-0.987688 101.545085 71.000000 0.000000 0.000000 0.000000 0.000000 0.000000 0.000000 0.000000 0.000000 0.000000 0.000000 0.000000 0.000000 0.000000 0.000000 0.000000 10.815595 0.000000 0.000000 5.407797 0.000000 0.000000 0.000000 0.000000 0.000000 -10.815595 0.000000 0.000000 -5.407797 0.000000 0.000000 0.000000 0.000000 0.000000 -13.905765 0.000000 0.000000 -4.171729 0.000000 0.000000 0.000000 0.000000 0.000000 13.905765 0.000000 0.000000 4.171729 0.000000 0.000000 0.000000 0.000000 0.000000
-0.951057 102.938926 72.000000 0.000000 0.000000 0.000000 0.000000 0.000000 0.000000 0.000000 0.000000 0.000000 0.000000 0.000000 0.000000 0.000000 0.000000 0.000000 20.572484 0.000000 0.000000 10.286242 0.000000 0.000000 0.000000 0.000000 0.000000 -20.572484 0.000000 0.000000 -10.286242 0.000000 0.000000 0.000000 0.000000 0.000000 -26.450336 0.000000 0.000000 -7.935101 0.000000 0.000000 0.000000 0.000000 0.000000 26.450336 0.000000 0.000000 7.935101 0.000000 0.000000 0.000000 0.000000 0.000000
-0.891007 104.045085 73.000000 0.000000 0.000000 0.000000 0.000000 0.000000 0.000000 0.000000 0.000000 0.000000 0.000000 0.000000 0.000000 0.000000 0.000000 0.000000 28.315595 0.000000 0.000000 14.157797 0.000000 0.000000 0.000000 0.000000 0.000000 -28.315595 0.000000 0.000000 -14.157797 0.000000 0.000000 0.000000 0.000000 0.000000 -36.405765 0.000000 0.000000 -10.921729 0.000000 0.000000 0.000000 0.000000 0.000000 36.405765 0.000000 0.000000 10.921729 0.000000 0.000000 0.000000 0.000000 0.000000
-0.809017 104.755283 74.000000 0.000000 0.000000 0.000000 0.000000 0.000000 0.000000 0.000000 0.000000 0.000000 0.000000 0.000000 0.000000 0.000000 0.000000 0.000000 33.286978 0.000000 0.000000 16.643489 0.000000 0.000000 0.000000 0.000000 0.000000 -33.286978 0.000000 0.000000 -16.643489 0.000000 0.000000 0.000000 0.000000 0.000000 -42.797543 0.000000 0.000000 -12.839263 0.000000 0.000000 0.000000 0.000000 0.000000 42.797543 0.000000 0.000000 12.839263 0.000000 0.000000 0.000000 0.000000 0.000000
-0.707107 105.000000 75.000000 0.000000 0.000000 0.000000 0.000000 0.000000 0.000000 0.000000 0.000000 0.000000 0.000000 0.000000 0.000000 0.000000 0.000000 0.000000 35.000000 0.000000 0.000000 17.500000 0.000000 0.000000 0.000000 0.000000 0.000000 -35.000000 0.000000 0.000000 -17.500000 0.000000 0.000000 0.000000 0.000000 0.000000 -45.000000 0.000000 0.000000 -13.500000 0.000000 0.000000 0.000000 0.000000 0.000000 45.000000 0.000000 0.000000 13.500000 0.000000 0.000000 0.000000 0.000000 0.000000
-0.587785 104.755283 76.000000 0.000000 0.000000 0.000000 0.000000 0.000000 0.000000 0.000000 0.000000 0.000000 0.000000 0.000000 0.000000 0.000000 0.000000 0.000000 33.286978 0.000000 0.000000 16.643489 0.000000 0.000000 0.000000 0.000000 0.000000 -33.286978 0.000000 0.000000 -16.643489 0.000000 0.000000 0.000000 0.000000 0.000000 -42.797543 0.000000 0.000000 -12.839263 0.000000 0.000000 0.000000 0.000000 0.000000 42.797543 0.000000 0.000000 12.839263 0.000000 0.000000 0.000000 0.000000 0.000000
-0.453990 104.045085 77.000000 0.000000 0.000000 0.000000 0.000000 0.000000 0.000000 0.000000 0.000000 0.000000 0.000000 0.000000 0.000000 0.000000 0.000000 0.000000 28.315595 0.000000 0.000000 14.157797 0.000000 0.000000 0.000000 0.000000 0.000000 -28.315595 0.000000 0.000000 -14.157797 0.000000 0.000000 0.000000 0.000000 0.000000 -36.405765 0.000000 0.000000 -10.921729 0.000000 0.000000 0.000000 0.000000 0.000000 36.405765 0.000000 0.000000 10.921729 0.000000 0.000000 0.000000 0.000000 0.000000
-0.309017 102.938926 78.000000 0.000000 0.000000 0.000000 0.000000 0.000000 0.000000 0.000000 0.000000 0.000000 0.000000 0.000000 0.000000 0.000000 0.000000 0.000000 20.572484 0.000000 0.000000 10.286242 0.000000 0.000000 0.000000 0.000000 0.000000 -20.572484 0.000000 0.000000 -10.286242 0.000000 0.000000 0.000000 0.000000 0.000000 -26.450336 0.000000 0.000000 -7.935101 0.000000 0.000000 0.000000 0.000000 0.000000 26.450336 0.000000 0.000000 7.935101 0.000000 0.000000 0.000000 0.000000 0.000000
-0.156434 101.545085 79.000000 0.000000 0.000000 0.000000 0.000000 0.000000 0.000000 0.000000 0.000000 0.000000 0.000000 0.000000 0.000000 0.000000 0.000000 0.000000 10.815595 0.000000 0.000000 5.407797 0.000000 0.000000 0.000000 0.000000 0.000000 -10.815595 0.000000 0.000000 -5.407797 0.000000 0.000000 0.000000 0.000000 0.000000 -13.905765 0.000000 0.000000 -4.171729 0.000000 0.000000 0.000000 0.000000 0.000000 13.905765 0.000000 0.000000 4.171729 0.000000 0.000000 0.000000 0.000000 0.000000
-0.000000 100.000000 80.000000 0.000000 0.000000 0.000000 0.000000 0.000000 0.000000 0.000000 0.000000 0.000000 0.000000 0.000000 0.000000 0.000000 0.000000 0.000000 0.000000 0.000000 0.000000 0.000000 0.000000 0.000000 0.000000 0.000000 0.000000 -0.000000 0.000000 0.000000 -0.000000 0.000000 0.000000 0.000000 0.000000 0.000000 -0.000000 0.000000 0.000000 -0.000000 0.000000 0.000000 0.000000 0.000000 0.000000 0.000000 0.000000 0.000000 0.000000 0.000000 0.000000 0.000000 0.000000 0.000000
0.156434 101.545085 81.000000 0.000000 0.000000 0.000000 0.000000 0.000000 0.000000 0.000000 0.000000 0.000000 0.000000 0.000000 0.000000 0.000000 0.000000 0.000000 -10.815595 0.000000 0.000000 -5.407797 0.000000 0.000000 0.000000 0.000000 0.000000 10.815595 0.000000 0.000000 5.407797 0.000000 0.000000 0.000000 0.000000 0.000000 13.905765 0.000000 0.000000 4.171729 0.000000 0.000000 0.000000 0.000000 0.000000 -13.905765 0.000000 0.000000 -4.171729 0.000000 0.000000 0.000000 0.000000 0.000000
0.309017 102.938926 82.000000 0.000000 0.000000 0.000000 0.000000 0.000000 0.000000 0.000000 0.000000 0.000000 0.000000 0.000000 0.000000 0.000000 0.000000 0.000000 -20.572484 0.000000 0.000000 -10.286242 0.000000 0.000000 0.000000 0.000000 0.000000 20.572484 0.000000 0.000000 10.286242 0.000000 0.000000 0.000000 0.000000 0.000000 26.450336 0.000000 0.000000 7.935101 0.000000 0.000000 0.000000 0.000000 0.000000 -26.450336 0.000000 0.000000 -7.935101 0.000000 0.000000 0.000000 0.000000 0.000000
0.453990 104.045085 83.000000 0.000000 0.000000 0.000000 0.000000 0.000000 0.000000 0.000000 0.000000 0.000000 0.000000 0.000000 0.000000 0.000000 0.000000 0.000000 -28.315595 0.000000 0.000000 -14.157797 0.000000 0.000000 0.000000 0.000000 0.000000 28.315595 0.000000 0.000000 14.157797 0.000000 0.000000 0.000000 0.000000 0.000000 36.405765 0.000000 0.000000 10.921729 0.000000 0.000000 0.000000 0.000000 0.000000 -36.405765 0.000000 0.000000 -10.921729 0.000000 0.000000 0.000000 0.000000 0.000000
0.587785 104.755283 84.000000 0.000000 0.000000 0.000000 0.000000 0.000000 0.000000 0.000000 0.000000 0.000000 0.000000 0.000000 0.000000 0.000000 0.000000 0.000000 -33.286978 0.000000 0.000000 -16.643489 0.000000 0.000000 0.000000 0.000000 0.000000 33.286978 0.000000 0.000000 16.643489 0.000000 0.000000 0.000000 0.000000 0.000000 42.797543 0.000000 0.000000 12.839263 0.000000 0.000000 0.000000 0.000000 0.000000 -42.797543 0.000000 0.000000 -12.839263 0.000000 0.000000 0.000000 0.000000 0.000000
0.707107 105.000000 85.000000 0.000000 0.000000 0.000000 0.000000 0.000000 0.000000 0.000000 0.000000 0.000000 0.000000 0.000000 0.000000 0.000000 0.000000 0.000000 -35.000000 0.000000 0.000000 -17.500000 0.000000 0.000000 0.000000 0.000000 0.000000 35.000000 0.000000 0.000000 17.500000 0.000000 0.000000 0.000000 0.000000 0.000000 45.000000 0.000000 0.000000 13.500000 0.000000 0.000000 0.000000 0.000000 0.000000 -45.000000 0.000000 0.000000 -13.500000 0.000000 0.000000 0.000000 0.000000 0.000000
0.809017 104.755283 86.000000 0.000000 0.000000 0.000000 0.000000 0.000000 0.000000 0.000000 0.000000 0.000000 0.000000 0.000000 0.000000 0.000000 0.000000 0.000000 -33.286978 0.000000 0.000000 -16.643489 0.000000 0.000000 0.000000 0.000000 0.000000 33.286978 0.000000 0.000000 16.643489 0.000000 0.000000 0.000000 0.000000 0.000000 42.797543 0.000000 0.000000 12.839263 0.000000 0.000000 0.000000 0.000000 0.000000 -42.797543 0.000000 0.000000 -12.839263 0.000000 0.000000 0.000000 0.000000 0.000000
0.891007 104.045085 87.000000 0.000000 0.000000 0.000000 0.000000 0.000000 0.000000 0.000000 0.000000 0.000000 0.000000 0.000000 0.000000 0.000000 0.000000 0.000000 -28.315595 0.000000 0.000000 -14.157797 0.000000 0.000000 0.000000 0.000000 0.000000 28.315595 0.000000 0.000000 14.157797 0.000000 0.000000 0.000000 0.000000 0.000000 36.405765 0.000000 0.000000 10.921729 0.000000 0.000000 0.000000 0.000000 0.000000 -36.405765 0.000000 0.000000 -10.921729 0.000000 0.000000 0.000000 0.000000 0.000000
0.951057 102.938926 88.000000 0.000000 0.000000 0.000000 0.000000 0.000000 0.000000 0.000000 0.000000 0.000000 0.000000 0.000000 0.000000 0.000000 0.000000 0.000000 -20.572484 0.000000 0.000000 -10.286242 0.000000 0.000000 0.000000 0.000000 0.000000 20.572484 0.000000 0.000000 10.286242 0.000000 0.000000 0.000000 0.000000 0.000000 26.450336 0.000000 0.000000 7.935101 0.000000 0.000000 0.000000 0.000000 0.000000 -26.450336 0.000000 0.000000 -7.935101 0.000000 0.000000 0.000000 0.000000 0.000000
0.987688 101.545085 89.000000 0.000000 0.000000 0.000000 0.000000 0.000000 0.000000 0.000000 0.000000 0.000000 0.000000 0.000000 0.000000 0.000000 0.000000 0.000000 -10.815595 0.000000 0.000000 -5.407797 0.000000 0.000000 0.000000 0.000000 0.000000 10.815595 0.000000 0.000000 5.407797 0.000000 0.000000 0.000000 0.000000 0.000000 13.905765 0.000000 0.000000 4.171729 0.000000 0.000000 0.000000 0.000000 0.000000 -13.905765 0.000000 0.000000 -4.171729 0.000000 0.000000 0.000000 0.000000 0.000000
1.000000 100.000000 90.000000 0.000000 0.000000 0.000000 0.000000 0.000000 0.000000 0.000000 0.000000 0.000000 0.000000 0.000000 0.000000 0.000000 0.000000 0.000000 -0.000000 0.000000 0.000000 -0.000000 0.000000 0.000000 0.000000 0.000000 0.000000 0.000000 0.000000 0.000000 0.000000 0.000000 0.000000 0.000000 0.000000 0.000000 0.000000 0.000000 0.000000 0.000000 0.000000 0.000000 0.000000 0.000000 0.000000 -0.000000 0.000000 0.000000 -0.000000 0.000000 0.000000 0.000000 0.000000 0.000000
0.987688 101.545085 91.000000 0.000000 0.000000 0.000000 0.000000 0.000000 0.000000 0.000000 0.000000 0.000000 0.000000 0.000000 0.000000 0.000000 0.000000 0.000000 10.815595 0.000000 0.000000 5.407797 0.000000 0.000000 0.000000 0.000000 0.000000 -10.815595 0.000000 0.000000 -5.407797 0.000000 0.000000 0.000000 0.000000 0.000000 -13.905765 0.000000 0.000000 -4.171729 0.000000 0.000000 0.000000 0.000000 0.000000 13.905765 0.000000 0.000000 4.171729 0.000000 0.000000 0.000000 0.000000 0.000000
0.951057 102.938926 92.000000 0.000000 0.000000 0.000000 0.000000 0.000000 0.000000 0.000000 0.000000 0.000000 0.000000 0.000000 0.000000 0.000000 0.000000 0.000000 20.572484 0.000000 0.000000 10.286242 0.000000 0.000000 0.000000 0.000000 0.000000 -20.572484 0.000000 0.000000 -10.286242 0.000000 0.000000 0.000000 0.000000 0.000000 -26.450336 0.000000 0.000000 -7.935101 0.000000 0.000000 0.000000 0.000000 0.000000 26.450336 0.000000 0.000000 7.935101 0.000000 0.000000 0.000000 0.000000 0.000000
0.891007 104.045085 93.000000 0.000000 0.000000 0.000000 0.000000 0.000000 0.000000 0.000000 0.000000 0.000000 0.000000 0.000000 0.000000 0.000000 0.000000 0.000000 28.315595 0.000000 0.000000 14.157797 0.000000 0.000000 0.000000 0.000000 0.000000 -28.315595 0.000000 0.000000 -14.157797 0.000000 0.000000 0.000000 0.000000 0.000000 -36.405765 0.000000 0.000000 -10.921729 0.000000 0.000000 0.000000 0.000000 0.000000 36.405765 0.000000 0.000000 10.921729 0.000000 0.000000 0.000000 0.000000 0.000000
0.809017 104.755283 94.000000 0.000000 0.000000 0.000000 0.000000 0.000000 0.000000 0.000000 0.000000 0.000000 0.000000 0.000000 0.000000 0.000000 0.000000 0.000000 33.286978 0.000000 0.000000 16.643489 0.000000 0.000000 0.000000 0.000000 0.000000 -33.286978 0.000000 0.000000 -16.643489 0.000000 0.000000 0.000000 0.000000 0.000000 -42.797543 0.000000 0.000000 -12.839263 0.000000 0.000000 0.000000 0.000000 0.000000 42.797543 0.000000 0.000000 12.839263 0.000000 0.000000 0.000000 0.000000 0.000000
0.707107 105.000000 95.000000 0.000000 0.000000 0.000000 0.000000 0.000000 0.000000 0.000000 0.000000 0.000000 0.000000 0.000000 0.000000 0.000000 0.000000 0.000000 35.000000 0.000000 0.000000 17.500000 0.000000 0.000000 0.000000 0.000000 0.000000 -35.000000 0.000000 0.000000 -17.500000 0.000000 0.000000 0.000000 0.000000 0.000000 -45.000000 0.000000 0.000000 -13.500000 0.000000 0.000000 0.000000 0.000000 0.000000 45.000000 0.000000 0.000000 13.500000 0.000000 0.000000 0.000000 0.000000 0.000000
0.587785 104.755283 96.000000 0.000000 0.000000 0.000000 0.000000 0.000000 0.000000 0.000000 0.000000 0.000000 0.000000 0.000000 0.000000 0.000000 0.000000 0.000000 33.286978 0.000000 0.000000 16.643489 0.000000 0.000000 0.000000 0.000000 0.000000 -33.286978 0.000000 0.000000 -16.643489 0.000000 0.000000 0.000000 0.000000 0.000000 -42.797543 0.000000 0.000000 -12.839263 0.000000 0.000000 0.000000 0.000000 0.000000 42.797543 0.000000 0.000000 12.839263 0.000000 0.000000 0.000000 0.000000 0.000000
0.453990 104.045085 97.000000 0.000000 0.000000 0.000000 0.000000 0.000000 0.000000 0.000000 0.000000 0.000000 0.000000 0.000000 0.000000 0.000000 0.000000 0.000000 28.315595 0.000000 0.000000 14.157797 0.000000 0.000000 0.000000 0.000000 0.000000 -28.315595 0.000000 0.000000 -14.157797 0.000000 0.000000 0.000000 0.000000 0.000000 -36.405765 0.000000 0.000000 -10.921729 0.000000 0.000000 0.000000 0.000000 0.000000 36.405765 0.000000 0.000000 10.921729 0.000000 0.000000 0.000000 0.000000 0.000000
0.309017 102.938926 98.000000 0.000000 0.000000 0.000000 0.000000 0.000000 0.000000 0.000000 0.000000 0.000000 0.000000 0.000000 0.000000 0.000000 0.000000 0.000000 20.572484 0.000000 0.000000 10.286242 0.000000 0.000000 0.000000 0.000000 0.000000 -20.572484 0.000000 0.000000 -10.286242 0.000000 0.000000 0.000000 0.000000 0.000000 -26.450336 0.000000 0.000000 -7.935101 0.000000 0.000000 0.000000 0.000000 0.000000 26.450336 0.000000 0.000000 7.935101 0.000000 0.000000 0.000000 0.000000 0.000000
0.156434 101.545085 99.000000 0.000000 0.000000 0.000000 0.000000 0.000000 0.000000 0.000000 0.000000 0.000000 0.000000 0.000000 0.000000 0.000000 0.000000 0.000000 10.815595 0.000000 0.000000 5.407797 0.000000 0.000000 0.000000 0.000000 0.000000 -10.815595 0.000000 0.000000 -5.407797 0.000000 0.000000 0.000000 0.000000 0.000000 -13.905765 0.000000 0.000000 -4.171729 0.000000 0.000000 0.000000 0.000000 0.000000 13.905765 0.000000 0.000000 4.171729 0.000000 0.000000 0.000000 0.000000 0.000000
0.000000 100.000000 100.000000 0.000000 0.000000 0.000000 0.000000 0.000000 0.000000 0.000000 0.000000 0.000000 0.000000 0.000000 0.000000 0.000000 0.000000 0.000000 0.000000 0.000000 0.000000 0.000000 0.000000 0.000000 0.000000 0.000000 0.000000 -0.000000 0.000000 0.000000 -0.000000 0.000000 0.000000 0.000000 0.000000 0.000000 -0.000000 0.000000 0.000000 -0.000000 0.000000 0.000000 0.000000 0.000000 0.000000 0.000000 0.000000 0.000000 0.000000 0.000000 0.000000 0.000000 0.000000 0.000000
-0.156434 101.545085 101.000000 0.000000 0.000000 0.000000 0.000000 0.000000 0.000000 0.000000 0.000000 0.000000 0.000000 0.000000 0.000000 0.000000 0.000000 0.000000 -10.815595 0.000000 0.000000 -5.407797 0.000000 0.000000 0.000000 0.000000 0.000000 10.815595 0.000000 0.000000 5.407797 0.000000 0.000000 0.000000 0.000000 0.000000 13.905765 0.000000 0.000000 4.171729 0.000000 0.000000 0.000000 0.000000 0.000000 -13.905765 0.000000 0.000000 -4.171729 0.000000 0.000000 0.000000 0.000000 0.000000
-0.309017 102.938926 102.000000 0.000000 0.000000 0.000000 0.000000 0.000000 0.000000 0.000000 0.000000 0.000000 0.000000 0.000000 0.000000 0.000000 0.000000 0.000000 -20.572484 0.000000 0.000000 -10.286242 0.000000 0.000000 0.000000 0.000000 0.000000 20.572484 0.000000 0.000000 10.286242 0.000000 0.000000 0.000000 0.000000 0.000000 26.450336 0.000000 0.000000 7.935101 0.000000 0.000000 0.000000 0.000000 0.000000 -26.450336 0.000000 0.000000 -7.935101 0.000000 0.000000 0.000000 0.000000 0.000000
-0.453990 104.045085 103.000000 0.000000 0.000000 0.000000 0.000000 0.000000 0.000000 0.000000 0.000000 0.000000 0.000000 0.000000 0.000000 0.000000 0.000000 0.000000 -28.315595 0.000000 0.000000 -14.157797 0.000000 0.000000 0.000000 0.000000 0.000000 28.315595 0.000000 0.000000 14.157797 0.000000 0.000000 0.000000 0.000000 0.000000 36.405765 0.000000 0.000000 10.921729 0.000000 0.000000 0.000000 0.000000 0.000000 -36.405765 0.000000 0.000000 -10.921729 0.000000 0.000000 0.000000 0.000000 0.000000
-0.587785 104.755283 104.000000 0.000000 0.000000 0.000000 0.000000 0.000000 0.000000 0.000000 0.000000 0.000000 0.000000 0.000000 0.000000 0.000000 0.000000 0.000000 -33.286978 0.000000 0.000000 -16.643489 0.000000 0.000000 0.000000 0.000000 0.000000 33.286978 0.000000 0.000000 16.643489 0.000000 0.000000 0.000000 0.000000 0.000000 42.797543 0.000000 0.000000 12.839263 0.000000 0.000000 0.000000 0.000000 0.000000 -42.797543 0.000000 0.000000 -12.839263 0.000000 0.000000 0.000000 0.000000 0.000000
-0.707107 105.000000 105.000000 0.000000 0.000000 0.000000 0.000000 0.000000 0.000000 0.000000 0.000000 0.000000 0.000000 0.000000 0.000000 0.000000 0.000000 0.000000 -35.000000 0.000000 0.000000 -17.500000 0.000000 0.000000 0.000000 0.000000 0.000000 35.000000 0.000000 0.000000 17.500000 0.000000 0.000000 0.000000 0.000000 0.000000 45.000000 0.000000 0.000000 13.500000 0.000000 0.000000 0.000000 0.000000 0.000000 -45.000000 0.000000 0.000000 -13.500000 0.000000 0.000000 0.000000 0.000000 0.000000
-0.809017 104.755283 106.000000 0.000000 0.000000 0.000000 0.000000 0.000000 0.000000 0.000000 0.000000 0.000000 0.000000 0.000000 0.000000 0.000000 0.000000 0.000000 -33.286978 0.000000 0.000000 -16.643489 0.000000 0.000000 0.000000 0.000000 0.000000 33.286978 0.000000 0.000000 16.643489 0.000000 0.000000 0.000000 0.000000 0.000000 42.797543 0.000000 0.000000 12.839263 0.000000 0.000000 0.000000 0.000000 0.000000 -42.797543 0.000000 0.000000 -12.839263 0.000000 0.000000 0.000000 0.000000 0.000000
-0.891007 104.045085 107.000000 0.000000 0.000000 0.000000 0.000000 0.000000 0.000000 0.000000 0.000000 0.000000 0.000000 0.000000 0.000000 0.000000 0.000000 0.000000 -28.315595 0.000000 0.000000 -14.157797 0.000000 0.000000 0.000000 0.000000 0.000000 28.315595 0.000000 0.000000 14.157797 0.000000 0.000000 0.000000 0.000000 0.000000 36.405765 0.000000 0.000000 10.921729 0.000000 0.000000 0.000000 0.000000 0.000000 -36.405765 0.000000 0.000000 -10.921729 0.000000 0.000000 0.000000 0.000000 0.000000
-0.951057 102.938926 108.000000 0.000000 0.000000 0.000000 0.000000 0.000000 0.000000 0.000000 0.000000 0.000000 0.000000 0.000000 0.000000 0.000000 0.000000 0.000000 -20.572484 0.000000 0.000000 -10.286242 0.000000 0.000000 0.000000 0.000000 0.000000 20.572484 0.000000 0.000000 10.286242 0.000000 0.000000 0.000000 0.000000 0.000000 26.450336 0.000000 0.000000 7.935101 0.000000 0.000000 0.000000 0.000000 0.000000 -26.450336 0.000000 0.000000 -7.935101 0.000000 0.000000 0.000000 0.000000 0.000000
-0.987688 101.545085 109.000000 0.000000 0.000000 0.000000 0.000000 0.000000 0.000000 0.000000 0.000000 0.000000 0.000000 0.000000 0.000000 0.000000 0.000000 0.000000 -10.815595 0.000000 0.000000 -5.407797 0.000000 0.000000 0.000000 0.000000 0.000000 10.815595 0.000000 0.000000 5.407797 0.000000 0.000000 0.000000 0.000000 0.000000 13.905765 0.000000 0.000000 4.171729 0.000000 0.000000 0.000000 0.000000 0.000000 -13.905765 0.000000 0.000000 -4.171729 0.000000 0.000000 0.000000 0.000000 0.000000
-1.000000 100.000000 110.000000 0.000000 0.000000 0.000000 0.000000 0.000000 0.000000 0.000000 0.000000 0.000000 0.000000 0.000000 0.000000 0.000000 0.000000 0.000000 -0.000000 0.000000 0.000000 -0.000000 0.000000 0.000000 0.000000 0.000000 0.000000 0.000000 0.000000 0.000000 0.000000 0.000000 0.000000 0.000000 0.000000 0.000000 0.000000 0.000000 0.000000 0.000000 0.000000 0.000000 0.000000 0.000000 0.000000 -0.000000 0.000000 0.000000 -0.000000 0.000000 0.000000 0.000000 0.000000 0.000000
-0.987688 101.545085 111.000000 0.000000 0.000000 0.000000 0.000000 0.000000 0.000000 0.000000 0.000000 0.000000 0.000000 0.000000 0.000000 0.000000 0.000000 0.000000 10.815595 0.000000 0.000000 5.407797 0.000000 0.000000 0.000000 0.000000 0.000000 -10.815595 0.000000 0.000000 -5.407797 0.000000 0.000000 0.000000 0.000000 0.000000 -13.905765 0.000000 0.000000 -4.171729 0.000000 0.000000 0.000000 0.000000 0.000000 13.905765 0.000000 0.000000 4.171729 0.000000 0.000000 0.000000 0.000000 0.000000
-0.951057 102.938926 112.000000 0.000000 0.000000 0.000000 0.000000 0.000000 0.000000 0.000000 0.000000 0.000000 0.000000 0.000000 0.000000 0.000000 0.000000 0.000000 20.572484 0.000000 0.000000 10.286242 0.000000 0.000000 0.000000 0.000000 0.000000 -20.572484 0.000000 0.000000 -10.286242 0.000000 0.000000 0.000000 0.000000 0.000000 -26.450336 0.000000 0.000000 -7.935101 0.000000 0.000000 0.000000 0.000000 0.000000 26.450336 0.000000 0.000000 7.935101 0.000000 0.000000 0.000000 0.000000 0.000000
-0.891007 104.045085 113.000000 0.000000 0.000000 0.000000 0.000000 0.000000 0.000000 0.000000 0.000000 0.000000 0.000000 0.000000 0.000000 0.000000 0.000000 0.000000 28.315595 0.000000 0.000000 14.157797 0.000000 0.000000 0.000000 0.000000 0.000000 -28.315595 0.000000 0.000000 -14.157797 0.000000 0.000000 0.000000 0.000000 0.000000 -36.405765 0.000000 0.000000 -10.921729 0.000000 0.000000 0.000000 0.000000 0.000000 36.405765 0.000000 0.000000 10.921729 0.000000 0.000000 0.000000 0.000000 0.000000
-0.809017 104.755283 114.000000 0.000000 0.000000 0.000000 0.000000 0.000000 0.000000 0.000000 0.000000 0.000000 0.000000 0.000000 0.000000 0.000000 0.000000 0.000000 33.286978 0.000000 0.000000 16.643489 0.000000 0.000000 0.000000 0.000000 0.000000 -33.286978 0.000000 0.000000 -16.643489 0.000000 0.000000 0.000000 0.000000 0.000000 -42.797543 0.000000 0.000000 -12.839263 0.000000 0.000000 0.000000 0.000000 0.000000 42.797543 0.000000 0.000000 12.839263 0.000000 0.000000 0.000000 0.000000 0.000000
-0.707107 105.000000 115.000000 0.000000 0.000000 0.000000 0.000000 0.000000 0.000000 0.000000 0.000000 0.000000 0.000000 0.000000 0.000000 0.000000 0.000000 0.000000 35.000000 0.000000 0.000000 17.500000 0.000000 0.000000 0.000000 0.000000 0.000000 -35.000000 0.000000 0.000000 -17.500000 0.000000 0.000000 0.000000 0.000000 0.000000 -45.000000 0.000000 0.000000 -13.500000 0.000000 0.000000 0.000000 0.000000 0.000000 45.000000 0.000000 0.000000 13.500000 0.000000 0.000000 0.000000 0.000000 0.000000
-0.587785 104.755283 116.000000 0.000000 0.000000 0.000000 0.000000 0.000000 0.000000 0.000000 0.000000 0.000000 0.000000 0.000000 0.000000 0.000000 0.000000 0.000000 33.286978 0.000000 0.000000 16.643489 0.000000 0.000000 0.000000 0.000000 0.000000 -33.286978 0.000000 0.000000 -16.643489 0.000000 0.000000 0.000000 0.000000 0.000000 -42.797543 0.000000 0.000000 -12.839263 0.000000 0.000000 0.000000 0.000000 0.000000 42.797543 0.000000 0.000000 12.839263 0.000000 0.000000 0.000000 0.000000 0.000000
-0.453990 104.045085 117.000000 0.000000 0.000000 0.000000 0.000000 0.000000 0.000000 0.000000 0.000000 0.000000 0.000000 0.000000 0.000000 0.000000 0.000000 0.000000 28.315595 0.000000 0.000000 14.157797 0.000000 0.000000 0.000000 0.000000 0.000000 -28.315595 0.000000 0.000000 -14.157797 0.000000 0.000000 0.000000 0.000000 0.000000 -36.405765 0.000000 0.000000 -10.921729 0.000000 0.000000 0.000000 0.000000 0.000000 36.405765 0.000000 0.000000 10.921729 0.000000 0.000000 0.000000 0.000000 0.000000
-0.309017 102.938926 118.000000 0.000000 0.000000 0.000000 0.000000 0.000000 0.000000 0.000000 0.000000 0.000000 0.000000 0.000000 0.000000 0.000000 0.000000 0.000000 20.572484 0.000000 0.000000 10.286242 0.000000 0.000000 0.000000 0.000000 0.000000 -20.572484 0.000000 0.000000 -10.286242 0.000000 0.000000 0.000000 0.000000 0.000000 -26.450336 0.000000 0.000000 -7.935101 0.000000 0.000000 0.000000 0.000000 0.000000 26.450336 0.000000 0.000000 7.935101 0.000000 0.000000 0.000000 0.000000 0.000000
-0.156434 101.545085 119.000000 0.000000 0.000000 0.000000 0.000000 0.000000 0.000000 0.000000 0.000000 0.000000 0.000000 0.000000 0.000000 0.000000 0.000000 0.000000 10.815595 0.000000 0.000000 5.407797 0.000000 0.000000 0.000000 0.000000 0.000000 -10.815595 0.000000 0.000000 -5.407797 0.000000 0.000000 0.000000 0.000000 0.000000 -13.905765 0.000000 0.000000 -4.171729 0.000000 0.000000 0.000000 0.000000 0.000000 13.905765 0.000000 0.000000 4.171729 0.000000 0.000000 0.000000 0.000000 0.000000
